{
  "type": "FeatureCollection",
  "properties": {
    "source": "Dijkstra sur reseau OSM (ODbL) + altimetrie IGN, vitesse de Tobler -- voir TRAJET-PREMIER-CALCUL.md",
    "mode": "pieton uniquement"
  },
  "features": [
    {
      "type": "Feature",
      "properties": {
        "depart": "notre-dame-centre",
        "temps_min": 46.5,
        "distance_reseau_m": 3890.0
      },
      "geometry": {
        "type": "LineString",
        "coordinates": [
          [
            6.2313482,
            43.010396
          ],
          [
            6.2320456,
            43.0099508
          ],
          [
            6.2324309,
            43.0088843
          ],
          [
            6.2316976,
            43.008493
          ],
          [
            6.2277066,
            43.0093837
          ],
          [
            6.2268356,
            43.0110607
          ],
          [
            6.2261275,
            43.0113156
          ],
          [
            6.2246243,
            43.0109581
          ],
          [
            6.2237276,
            43.010431
          ],
          [
            6.222424,
            43.0108007
          ],
          [
            6.2208094,
            43.0103858
          ],
          [
            6.218479,
            43.0082546
          ],
          [
            6.2181795,
            43.0074953
          ],
          [
            6.2170878,
            43.0070207
          ],
          [
            6.2170937,
            43.0064367
          ],
          [
            6.2165728,
            43.006189
          ],
          [
            6.2165085,
            43.0048238
          ],
          [
            6.215302,
            43.0030983
          ],
          [
            6.2109101,
            43.0015333
          ],
          [
            6.2065164,
            43.0010341
          ],
          [
            6.2054603,
            43.0020927
          ],
          [
            6.2045687,
            43.002498
          ],
          [
            6.2028725,
            43.0020418
          ],
          [
            6.2008225,
            43.0029371
          ],
          [
            6.2005408,
            43.0025177
          ],
          [
            6.1999381,
            43.002741
          ]
        ]
      }
    },
    {
      "type": "Feature",
      "properties": {
        "depart": "argent-centre",
        "temps_min": 25.9,
        "distance_reseau_m": 2130.0
      },
      "geometry": {
        "type": "LineString",
        "coordinates": [
          [
            6.1883914,
            43.0039476
          ],
          [
            6.1873017,
            43.0030001
          ],
          [
            6.1884712,
            43.0022508
          ],
          [
            6.1898496,
            43.002503
          ],
          [
            6.1910523,
            43.00243
          ],
          [
            6.1942017,
            43.0012728
          ],
          [
            6.1955657,
            43.0012951
          ],
          [
            6.1987551,
            43.00034
          ],
          [
            6.2024839,
            42.9999606
          ],
          [
            6.2031869,
            43.0012757
          ],
          [
            6.2028092,
            43.0021628
          ],
          [
            6.2008225,
            43.0029371
          ],
          [
            6.2005408,
            43.0025177
          ],
          [
            6.1999381,
            43.002741
          ]
        ]
      }
    },
    {
      "type": "Feature",
      "properties": {
        "depart": "lequin",
        "temps_min": 81.1,
        "distance_reseau_m": 6163.0
      },
      "geometry": {
        "type": "LineString",
        "coordinates": [
          [
            6.2177643,
            43.0119052
          ],
          [
            6.2195716,
            43.0119497
          ],
          [
            6.2209091,
            43.0124191
          ],
          [
            6.2218493,
            43.0124099
          ],
          [
            6.2210311,
            43.0115777
          ],
          [
            6.2211058,
            43.0109669
          ],
          [
            6.2208094,
            43.0103858
          ],
          [
            6.2213128,
            43.008834
          ],
          [
            6.220645,
            43.0081279
          ],
          [
            6.2208542,
            43.0077376
          ],
          [
            6.2213543,
            43.0075285
          ],
          [
            6.2213558,
            43.0072551
          ],
          [
            6.2208608,
            43.0069087
          ],
          [
            6.2214965,
            43.0064183
          ],
          [
            6.2208274,
            43.0059114
          ],
          [
            6.2207159,
            43.0049746
          ],
          [
            6.2219417,
            43.0047511
          ],
          [
            6.2222737,
            43.0041814
          ],
          [
            6.2235655,
            43.0042278
          ],
          [
            6.2240711,
            43.0040462
          ],
          [
            6.2248937,
            43.0033837
          ],
          [
            6.2251055,
            43.0028786
          ],
          [
            6.2239587,
            43.0021776
          ],
          [
            6.2240086,
            43.0017771
          ],
          [
            6.2235687,
            43.0012004
          ],
          [
            6.2222142,
            43.0009917
          ],
          [
            6.222619,
            42.9993873
          ],
          [
            6.2237027,
            42.9981318
          ],
          [
            6.2235417,
            42.9978885
          ],
          [
            6.2222114,
            42.9978415
          ],
          [
            6.2199761,
            42.9983991
          ],
          [
            6.2180111,
            42.9983653
          ],
          [
            6.2183851,
            42.9981624
          ],
          [
            6.2180887,
            42.9968111
          ],
          [
            6.218865,
            42.9960245
          ],
          [
            6.2196868,
            42.995661
          ],
          [
            6.2199559,
            42.9948445
          ],
          [
            6.2181383,
            42.993803
          ],
          [
            6.2186974,
            42.9932192
          ],
          [
            6.2172956,
            42.9932208
          ],
          [
            6.2158732,
            42.994097
          ],
          [
            6.2146374,
            42.9945078
          ],
          [
            6.214007,
            42.9962401
          ],
          [
            6.2117969,
            42.9963303
          ],
          [
            6.2110164,
            42.9967442
          ],
          [
            6.2086973,
            42.9973204
          ],
          [
            6.2079814,
            42.9972249
          ],
          [
            6.2048328,
            42.9977558
          ],
          [
            6.2035976,
            42.9985343
          ],
          [
            6.2027447,
            42.9982408
          ],
          [
            6.2023441,
            42.9992843
          ],
          [
            6.2031869,
            43.0012757
          ],
          [
            6.2028092,
            43.0021628
          ],
          [
            6.2008225,
            43.0029371
          ],
          [
            6.2005408,
            43.0025177
          ],
          [
            6.1999381,
            43.002741
          ]
        ]
      }
    },
    {
      "type": "Feature",
      "properties": {
        "depart": "langoustier-blanche",
        "temps_min": 68.3,
        "distance_reseau_m": 5658.0
      },
      "geometry": {
        "type": "LineString",
        "coordinates": [
          [
            6.1664739,
            43.0003216
          ],
          [
            6.16642,
            42.9994028
          ],
          [
            6.1649904,
            42.9988732
          ],
          [
            6.1641902,
            42.9987673
          ],
          [
            6.1628446,
            42.9992381
          ],
          [
            6.1629943,
            42.9999663
          ],
          [
            6.1626007,
            43.000722
          ],
          [
            6.1654547,
            43.0001055
          ],
          [
            6.1681363,
            43.0005817
          ],
          [
            6.1689166,
            43.0004998
          ],
          [
            6.1701772,
            43.0009039
          ],
          [
            6.16965,
            43.0019129
          ],
          [
            6.1697844,
            43.0023439
          ],
          [
            6.1693518,
            43.0027929
          ],
          [
            6.169593,
            43.003127
          ],
          [
            6.1695555,
            43.0041469
          ],
          [
            6.1708818,
            43.0046056
          ],
          [
            6.1718863,
            43.0047021
          ],
          [
            6.172746,
            43.0051816
          ],
          [
            6.1719587,
            43.0058476
          ],
          [
            6.1752091,
            43.005798
          ],
          [
            6.176003,
            43.0061687
          ],
          [
            6.1772752,
            43.00589
          ],
          [
            6.1776504,
            43.0063224
          ],
          [
            6.1788247,
            43.0063943
          ],
          [
            6.1791071,
            43.0067942
          ],
          [
            6.1800992,
            43.0070578
          ],
          [
            6.1812314,
            43.0067569
          ],
          [
            6.182443,
            43.0070651
          ],
          [
            6.1837284,
            43.0067172
          ],
          [
            6.184501,
            43.0057801
          ],
          [
            6.1842094,
            43.0047644
          ],
          [
            6.1884712,
            43.0022508
          ],
          [
            6.1898496,
            43.002503
          ],
          [
            6.1910523,
            43.00243
          ],
          [
            6.1942017,
            43.0012728
          ],
          [
            6.1955657,
            43.0012951
          ],
          [
            6.1987551,
            43.00034
          ],
          [
            6.2024839,
            42.9999606
          ],
          [
            6.2031869,
            43.0012757
          ],
          [
            6.2028092,
            43.0021628
          ],
          [
            6.2008225,
            43.0029371
          ],
          [
            6.2005408,
            43.0025177
          ],
          [
            6.1999381,
            43.002741
          ]
        ]
      }
    },
    {
      "type": "Feature",
      "properties": {
        "depart": "galere",
        "temps_min": 78.5,
        "distance_reseau_m": 6171.0
      },
      "geometry": {
        "type": "LineString",
        "coordinates": [
          [
            6.249191,
            43.003957
          ],
          [
            6.2509806,
            43.0042117
          ],
          [
            6.2502362,
            43.0046614
          ],
          [
            6.2499355,
            43.0042498
          ],
          [
            6.2490491,
            43.0038661
          ],
          [
            6.247374,
            43.004352
          ],
          [
            6.246325,
            43.005146
          ],
          [
            6.2454741,
            43.0053709
          ],
          [
            6.243699,
            43.004477
          ],
          [
            6.2428,
            43.00379
          ],
          [
            6.24252,
            43.003268
          ],
          [
            6.241946,
            43.003083
          ],
          [
            6.240263,
            43.005667
          ],
          [
            6.2298718,
            43.0047432
          ],
          [
            6.2291565,
            43.0089797
          ],
          [
            6.2275886,
            43.009465
          ],
          [
            6.2268356,
            43.0110607
          ],
          [
            6.2259055,
            43.0113204
          ],
          [
            6.2246243,
            43.0109581
          ],
          [
            6.2237276,
            43.010431
          ],
          [
            6.2222207,
            43.0107902
          ],
          [
            6.2204567,
            43.0101981
          ],
          [
            6.218479,
            43.0082546
          ],
          [
            6.2181795,
            43.0074953
          ],
          [
            6.2170878,
            43.0070207
          ],
          [
            6.2170937,
            43.0064367
          ],
          [
            6.2165728,
            43.006189
          ],
          [
            6.2165085,
            43.0048238
          ],
          [
            6.215302,
            43.0030983
          ],
          [
            6.2109101,
            43.0015333
          ],
          [
            6.2065164,
            43.0010341
          ],
          [
            6.2054603,
            43.0020927
          ],
          [
            6.2045687,
            43.002498
          ],
          [
            6.2028725,
            43.0020418
          ],
          [
            6.2008225,
            43.0029371
          ],
          [
            6.2005408,
            43.0025177
          ],
          [
            6.1999381,
            43.002741
          ]
        ]
      }
    }
  ]
}