{
 "type": "FeatureCollection",
 "features": [
  {
   "type": "Feature",
   "properties": {
    "osm_type": "way",
    "osm_id": 39024019,
    "nom": "Fort Sainte-Agathe",
    "categorie": "castle",
    "en_ruine": false,
    "visitable_payant": true,
    "horaires": "Tu-Su 10:00-13:00,15:00-18:00",
    "classement_mh": "3",
    "ref_mh": "PA00081657",
    "date_inscription_mh": "1927"
   },
   "geometry": {
    "type": "Polygon",
    "coordinates": [
     [
      [
       6.2064431,
       43.0000373
      ],
      [
       6.2060933,
       42.9999454
      ],
      [
       6.2060316,
       42.9999204
      ],
      [
       6.2059809,
       42.9998139
      ],
      [
       6.2060458,
       42.999745
      ],
      [
       6.2061002,
       42.9997006
      ],
      [
       6.2061333,
       42.9996842
      ],
      [
       6.2062773,
       42.9997376
      ],
      [
       6.2062904,
       42.9997303
      ],
      [
       6.2063296,
       42.999721
      ],
      [
       6.2063616,
       42.9997206
      ],
      [
       6.2063918,
       42.9997246
      ],
      [
       6.2064345,
       42.9995968
      ],
      [
       6.2064092,
       42.9995911
      ],
      [
       6.2064215,
       42.9995677
      ],
      [
       6.2064841,
       42.9995804
      ],
      [
       6.2064856,
       42.9996071
      ],
      [
       6.2065841,
       42.9996286
      ],
      [
       6.2067337,
       42.9996742
      ],
      [
       6.2067502,
       42.9996166
      ],
      [
       6.206848,
       42.9996291
      ],
      [
       6.2068143,
       42.9997328
      ],
      [
       6.2067527,
       42.9997315
      ],
      [
       6.2067061,
       42.9999512
      ],
      [
       6.2067523,
       42.9999622
      ],
      [
       6.2067525,
       43.000006
      ],
      [
       6.2066782,
       42.9999999
      ],
      [
       6.2066772,
       42.9999851
      ],
      [
       6.206618,
       42.9999841
      ],
      [
       6.2066192,
       42.9999756
      ],
      [
       6.2065485,
       42.9999667
      ],
      [
       6.2064517,
       42.9999563
      ],
      [
       6.2064431,
       43.0000373
      ]
     ]
    ]
   }
  },
  {
   "type": "Feature",
   "properties": {
    "osm_type": "way",
    "osm_id": 48733778,
    "nom": "Fort du Lequin",
    "categorie": "castle",
    "en_ruine": false,
    "visitable_payant": null,
    "horaires": null
   },
   "geometry": {
    "type": "Polygon",
    "coordinates": [
     [
      [
       6.2175539,
       43.0128667
      ],
      [
       6.2175613,
       43.0128609
      ],
      [
       6.217579,
       43.0128729
      ],
      [
       6.2175713,
       43.012879
      ],
      [
       6.2176423,
       43.0129273
      ],
      [
       6.2176519,
       43.0129197
      ],
      [
       6.2176692,
       43.0129314
      ],
      [
       6.2176629,
       43.0129364
      ],
      [
       6.2176973,
       43.0129597
      ],
      [
       6.2176826,
       43.0129713
      ],
      [
       6.2176908,
       43.0129769
      ],
      [
       6.2176748,
       43.0129895
      ],
      [
       6.2176649,
       43.0129828
      ],
      [
       6.217621,
       43.0130174
      ],
      [
       6.2176288,
       43.0130227
      ],
      [
       6.217614,
       43.0130344
      ],
      [
       6.2176071,
       43.0130297
      ],
      [
       6.217591,
       43.0130425
      ],
      [
       6.2175481,
       43.0130134
      ],
      [
       6.2175405,
       43.0130193
      ],
      [
       6.2175225,
       43.0130071
      ],
      [
       6.2175291,
       43.0130019
      ],
      [
       6.217474,
       43.0129645
      ],
      [
       6.2174669,
       43.0129701
      ],
      [
       6.2174484,
       43.0129575
      ],
      [
       6.2174537,
       43.0129534
      ],
      [
       6.217409,
       43.0129231
      ],
      [
       6.2174253,
       43.0129102
      ],
      [
       6.2174173,
       43.0129048
      ],
      [
       6.2174345,
       43.0128913
      ],
      [
       6.2174426,
       43.0128967
      ],
      [
       6.2174841,
       43.012864
      ],
      [
       6.2174762,
       43.0128586
      ],
      [
       6.2174916,
       43.0128465
      ],
      [
       6.2174982,
       43.012851
      ],
      [
       6.2175133,
       43.0128392
      ],
      [
       6.2175539,
       43.0128667
      ]
     ]
    ]
   }
  },
  {
   "type": "Feature",
   "properties": {
    "osm_type": "way",
    "osm_id": 48733779,
    "nom": "Fort de l'Alicastre",
    "categorie": "fort",
    "en_ruine": false,
    "visitable_payant": null,
    "horaires": null
   },
   "geometry": {
    "type": "Polygon",
    "coordinates": [
     [
      [
       6.2218493,
       43.0124099
      ],
      [
       6.2217962,
       43.0124112
      ],
      [
       6.2217365,
       43.01235
      ],
      [
       6.2216822,
       43.0124142
      ],
      [
       6.2215286,
       43.0124147
      ],
      [
       6.221529,
       43.0125025
      ],
      [
       6.2214039,
       43.012562
      ],
      [
       6.2215011,
       43.0126068
      ],
      [
       6.2214924,
       43.0126976
      ],
      [
       6.2216681,
       43.0126873
      ],
      [
       6.2217345,
       43.0127515
      ],
      [
       6.2218123,
       43.0126872
      ],
      [
       6.2219853,
       43.0126824
      ],
      [
       6.2219893,
       43.0126064
      ],
      [
       6.2221296,
       43.012537
      ],
      [
       6.2219829,
       43.0124734
      ],
      [
       6.2219825,
       43.0124101
      ],
      [
       6.2218493,
       43.0124099
      ]
     ]
    ]
   }
  },
  {
   "type": "Feature",
   "properties": {
    "osm_type": "way",
    "osm_id": 48789057,
    "nom": "Fort du Grand Langoustier",
    "categorie": "castle",
    "en_ruine": false,
    "visitable_payant": null,
    "horaires": null
   },
   "geometry": {
    "type": "Polygon",
    "coordinates": [
     [
      [
       6.1642098,
       42.9987873
      ],
      [
       6.1642004,
       42.9988569
      ],
      [
       6.1641964,
       42.9988859
      ],
      [
       6.1640521,
       42.9989115
      ],
      [
       6.1641737,
       42.9989818
      ],
      [
       6.1641619,
       42.9990692
      ],
      [
       6.1642816,
       42.9990846
      ],
      [
       6.1643393,
       42.9991817
      ],
      [
       6.1644211,
       42.9990988
      ],
      [
       6.1645573,
       42.999112
      ],
      [
       6.1645705,
       42.9990219
      ],
      [
       6.1646951,
       42.9989745
      ],
      [
       6.1645881,
       42.9989196
      ],
      [
       6.1646109,
       42.998816
      ],
      [
       6.1642098,
       42.9987873
      ]
     ]
    ]
   }
  },
  {
   "type": "Feature",
   "properties": {
    "osm_type": "way",
    "osm_id": 48845631,
    "nom": "Batterie des Mèdes",
    "categorie": "fort",
    "en_ruine": false,
    "visitable_payant": null,
    "horaires": null
   },
   "geometry": {
    "type": "Polygon",
    "coordinates": [
     [
      [
       6.2409168,
       43.0246134
      ],
      [
       6.2412347,
       43.024892
      ],
      [
       6.2413386,
       43.0248286
      ],
      [
       6.2410208,
       43.02455
      ],
      [
       6.2409168,
       43.0246134
      ]
     ]
    ]
   }
  },
  {
   "type": "Feature",
   "properties": {
    "osm_type": "way",
    "osm_id": 48891055,
    "nom": "Fort de la Repentance",
    "categorie": "fort",
    "en_ruine": false,
    "visitable_payant": null,
    "horaires": null
   },
   "geometry": {
    "type": "Polygon",
    "coordinates": [
     [
      [
       6.2224246,
       43.0049427
      ],
      [
       6.222636,
       43.0049782
      ],
      [
       6.2227534,
       43.0050117
      ],
      [
       6.2227893,
       43.0049626
      ],
      [
       6.2228751,
       43.0049953
      ],
      [
       6.2228278,
       43.0050663
      ],
      [
       6.2230609,
       43.0051586
      ],
      [
       6.2231018,
       43.0051736
      ],
      [
       6.2235505,
       43.0053523
      ],
      [
       6.2234046,
       43.0056182
      ],
      [
       6.2233808,
       43.0056588
      ],
      [
       6.2232671,
       43.0058645
      ],
      [
       6.2233026,
       43.0058826
      ],
      [
       6.2232717,
       43.0059228
      ],
      [
       6.2230785,
       43.005896
      ],
      [
       6.2230212,
       43.0059484
      ],
      [
       6.2223709,
       43.0056387
      ],
      [
       6.2222097,
       43.0055696
      ],
      [
       6.2221496,
       43.0055412
      ],
      [
       6.2221302,
       43.0055648
      ],
      [
       6.2220664,
       43.0055051
      ],
      [
       6.2220864,
       43.0054433
      ],
      [
       6.2221109,
       43.0054395
      ],
      [
       6.2224246,
       43.0049427
      ]
     ]
    ]
   }
  },
  {
   "type": "Feature",
   "properties": {
    "osm_type": "way",
    "osm_id": 48891128,
    "nom": "Fort du Galéasson",
    "categorie": "castle",
    "en_ruine": false,
    "visitable_payant": null,
    "horaires": null
   },
   "geometry": {
    "type": "Polygon",
    "coordinates": [
     [
      [
       6.2487284,
       43.011249
      ],
      [
       6.2487537,
       43.0112569
      ],
      [
       6.2487516,
       43.0112608
      ],
      [
       6.2487768,
       43.0112686
      ],
      [
       6.2487789,
       43.0112648
      ],
      [
       6.2488047,
       43.0112728
      ],
      [
       6.2488247,
       43.011279
      ],
      [
       6.2488402,
       43.0112838
      ],
      [
       6.2488378,
       43.0112872
      ],
      [
       6.2488651,
       43.011296
      ],
      [
       6.2488676,
       43.0112923
      ],
      [
       6.2488951,
       43.0113009
      ],
      [
       6.2489038,
       43.0112876
      ],
      [
       6.2489097,
       43.0112897
      ],
      [
       6.2489207,
       43.0112719
      ],
      [
       6.2489151,
       43.0112704
      ],
      [
       6.2489444,
       43.0112256
      ],
      [
       6.2489487,
       43.0112276
      ],
      [
       6.2489597,
       43.0112106
      ],
      [
       6.2489555,
       43.0112088
      ],
      [
       6.2489758,
       43.0111778
      ],
      [
       6.248803,
       43.0111227
      ],
      [
       6.2487865,
       43.011152
      ],
      [
       6.2487775,
       43.0111505
      ],
      [
       6.2487689,
       43.0111652
      ],
      [
       6.2487742,
       43.011168
      ],
      [
       6.2487504,
       43.0112095
      ],
      [
       6.2487437,
       43.0112078
      ],
      [
       6.2487354,
       43.0112239
      ],
      [
       6.2487416,
       43.0112265
      ],
      [
       6.2487284,
       43.011249
      ]
     ]
    ]
   }
  },
  {
   "type": "Feature",
   "properties": {
    "osm_type": "way",
    "osm_id": 49396600,
    "nom": "Fort de Bon-Renaud",
    "categorie": "castle",
    "en_ruine": false,
    "visitable_payant": null,
    "horaires": null
   },
   "geometry": {
    "type": "Polygon",
    "coordinates": [
     [
      [
       6.1844713,
       43.0077269
      ],
      [
       6.1845927,
       43.0078751
      ],
      [
       6.1847408,
       43.0078097
      ],
      [
       6.1846194,
       43.0076615
      ],
      [
       6.1845543,
       43.0076902
      ],
      [
       6.1844713,
       43.0077269
      ]
     ]
    ]
   }
  },
  {
   "type": "Feature",
   "properties": {
    "osm_type": "way",
    "osm_id": 49844724,
    "nom": "Fort du Petit Langoustier",
    "categorie": "fort",
    "en_ruine": false,
    "visitable_payant": null,
    "horaires": null
   },
   "geometry": {
    "type": "Polygon",
    "coordinates": [
     [
      [
       6.1608385,
       43.0051821
      ],
      [
       6.160989,
       43.005157
      ],
      [
       6.1610606,
       43.0050875
      ],
      [
       6.1612074,
       43.0050526
      ],
      [
       6.161203,
       43.0051151
      ],
      [
       6.1612769,
       43.0051444
      ],
      [
       6.161282,
       43.0052095
      ],
      [
       6.161402,
       43.0052523
      ],
      [
       6.1614745,
       43.0053078
      ],
      [
       6.1613287,
       43.0053757
      ],
      [
       6.1610472,
       43.0054048
      ],
      [
       6.1609386,
       43.0055006
      ],
      [
       6.1608953,
       43.0054469
      ],
      [
       6.1608541,
       43.0054136
      ],
      [
       6.160731,
       43.0053275
      ],
      [
       6.1606318,
       43.0053278
      ],
      [
       6.1606127,
       43.0053378
      ],
      [
       6.1606006,
       43.0053314
      ],
      [
       6.1606204,
       43.0053201
      ],
      [
       6.1605989,
       43.0053015
      ],
      [
       6.1605718,
       43.0053165
      ],
      [
       6.1605657,
       43.0053104
      ],
      [
       6.1605721,
       43.0053064
      ],
      [
       6.1605679,
       43.0052909
      ],
      [
       6.1607466,
       43.0051724
      ],
      [
       6.1608385,
       43.0051821
      ]
     ]
    ]
   }
  },
  {
   "type": "Feature",
   "properties": {
    "osm_type": "way",
    "osm_id": 55122366,
    "nom": "Fort du Pradeau",
    "categorie": "fort",
    "en_ruine": false,
    "visitable_payant": null,
    "horaires": null
   },
   "geometry": {
    "type": "Polygon",
    "coordinates": [
     [
      [
       6.1554986,
       43.0262549
      ],
      [
       6.1554633,
       43.0262961
      ],
      [
       6.1555217,
       43.0263235
      ],
      [
       6.1556048,
       43.0264156
      ],
      [
       6.1555072,
       43.0265111
      ],
      [
       6.1555103,
       43.0265258
      ],
      [
       6.1555333,
       43.0265292
      ],
      [
       6.1555683,
       43.0265104
      ],
      [
       6.1556702,
       43.0264507
      ],
      [
       6.155816,
       43.0264392
      ],
      [
       6.1558275,
       43.0264462
      ],
      [
       6.1559546,
       43.0263439
      ],
      [
       6.1559562,
       43.0262618
      ],
      [
       6.1558305,
       43.0261866
      ],
      [
       6.1558144,
       43.0261886
      ],
      [
       6.1556597,
       43.026203
      ],
      [
       6.155621,
       43.0262169
      ],
      [
       6.1554986,
       43.0262549
      ]
     ]
    ]
   }
  },
  {
   "type": "Feature",
   "properties": {
    "osm_type": "way",
    "osm_id": 88527233,
    "nom": "Batterie de la Galère",
    "categorie": "fort",
    "en_ruine": false,
    "visitable_payant": null,
    "horaires": null
   },
   "geometry": {
    "type": "Polygon",
    "coordinates": [
     [
      [
       6.2521534,
       43.0042914
      ],
      [
       6.2521702,
       43.004318
      ],
      [
       6.2521935,
       43.0043101
      ],
      [
       6.2522123,
       43.0043398
      ],
      [
       6.2521852,
       43.004349
      ],
      [
       6.2522037,
       43.0043783
      ],
      [
       6.2521429,
       43.0043987
      ],
      [
       6.2520983,
       43.0043281
      ],
      [
       6.2520889,
       43.0043132
      ],
      [
       6.2521534,
       43.0042914
      ]
     ]
    ]
   }
  },
  {
   "type": "Feature",
   "properties": {
    "osm_type": "way",
    "osm_id": 88531907,
    "nom": "Ferme de l'Aiguade",
    "categorie": "ruins",
    "en_ruine": true,
    "visitable_payant": null,
    "horaires": null
   },
   "geometry": {
    "type": "Polygon",
    "coordinates": [
     [
      [
       6.1766487,
       43.0064141
      ],
      [
       6.1767617,
       43.006304
      ],
      [
       6.1766551,
       43.0062455
      ],
      [
       6.1765422,
       43.0063556
      ],
      [
       6.1766487,
       43.0064141
      ]
     ]
    ]
   }
  },
  {
   "type": "Feature",
   "properties": {
    "osm_type": "way",
    "osm_id": 88531909,
    "nom": "Fort de Richelieu",
    "categorie": "fort",
    "en_ruine": false,
    "visitable_payant": null,
    "horaires": null
   },
   "geometry": {
    "type": "Polygon",
    "coordinates": [
     [
      [
       6.169521,
       43.0024306
      ],
      [
       6.1695715,
       43.0024537
      ],
      [
       6.1695895,
       43.0024328
      ],
      [
       6.1695604,
       43.0024194
      ],
      [
       6.169539,
       43.0024096
      ],
      [
       6.1695277,
       43.0024228
      ],
      [
       6.169521,
       43.0024306
      ]
     ]
    ]
   }
  },
  {
   "type": "Feature",
   "properties": {
    "osm_type": "way",
    "osm_id": 96914583,
    "nom": "Maison de Pierrot le Fou",
    "categorie": "ruins",
    "en_ruine": true,
    "visitable_payant": null,
    "horaires": null
   },
   "geometry": {
    "type": "Polygon",
    "coordinates": [
     [
      [
       6.2371256,
       43.0161583
      ],
      [
       6.237257,
       43.0161416
      ],
      [
       6.2372449,
       43.0160848
      ],
      [
       6.2371122,
       43.0160995
      ],
      [
       6.2371256,
       43.0161583
      ]
     ]
    ]
   }
  },
  {
   "type": "Feature",
   "properties": {
    "osm_type": "way",
    "osm_id": 1382287015,
    "nom": null,
    "categorie": "fort",
    "en_ruine": false,
    "visitable_payant": null,
    "horaires": null
   },
   "geometry": {
    "type": "Polygon",
    "coordinates": [
     [
      [
       6.2228961,
       43.0056324
      ],
      [
       6.2228944,
       43.0056378
      ],
      [
       6.2228903,
       43.0056426
      ],
      [
       6.2228843,
       43.005646
      ],
      [
       6.222877,
       43.0056478
      ],
      [
       6.2228693,
       43.0056477
      ],
      [
       6.2228621,
       43.0056457
      ],
      [
       6.2228566,
       43.0056423
      ],
      [
       6.2228528,
       43.0056378
      ],
      [
       6.2228511,
       43.0056327
      ],
      [
       6.2228517,
       43.0056275
      ],
      [
       6.2228545,
       43.0056226
      ],
      [
       6.2228593,
       43.0056187
      ],
      [
       6.2228656,
       43.005616
      ],
      [
       6.2228727,
       43.005615
      ],
      [
       6.2228798,
       43.0056156
      ],
      [
       6.2228863,
       43.0056178
      ],
      [
       6.2228919,
       43.0056218
      ],
      [
       6.2228953,
       43.0056268
      ],
      [
       6.2228961,
       43.0056324
      ]
     ]
    ]
   }
  },
  {
   "type": "Feature",
   "properties": {
    "osm_type": "way",
    "osm_id": 1382306534,
    "nom": null,
    "categorie": "fort",
    "en_ruine": false,
    "visitable_payant": null,
    "horaires": null
   },
   "geometry": {
    "type": "Polygon",
    "coordinates": [
     [
      [
       6.2231106,
       43.0057
      ],
      [
       6.2231089,
       43.0057054
      ],
      [
       6.2231048,
       43.0057102
      ],
      [
       6.2230988,
       43.0057136
      ],
      [
       6.2230915,
       43.0057154
      ],
      [
       6.2230838,
       43.0057153
      ],
      [
       6.2230766,
       43.0057133
      ],
      [
       6.2230711,
       43.0057099
      ],
      [
       6.2230673,
       43.0057054
      ],
      [
       6.2230656,
       43.0057003
      ],
      [
       6.2230662,
       43.0056951
      ],
      [
       6.223069,
       43.0056902
      ],
      [
       6.2230738,
       43.0056863
      ],
      [
       6.2230801,
       43.0056836
      ],
      [
       6.2230872,
       43.0056826
      ],
      [
       6.2230943,
       43.0056832
      ],
      [
       6.2231008,
       43.0056854
      ],
      [
       6.2231064,
       43.0056894
      ],
      [
       6.2231098,
       43.0056944
      ],
      [
       6.2231106,
       43.0057
      ]
     ]
    ]
   }
  },
  {
   "type": "Feature",
   "properties": {
    "osm_type": "way",
    "osm_id": 1382306535,
    "nom": null,
    "categorie": "fort",
    "en_ruine": false,
    "visitable_payant": null,
    "horaires": null
   },
   "geometry": {
    "type": "Polygon",
    "coordinates": [
     [
      [
       6.222643,
       43.0055224
      ],
      [
       6.2226413,
       43.0055278
      ],
      [
       6.2226372,
       43.0055326
      ],
      [
       6.2226312,
       43.005536
      ],
      [
       6.2226239,
       43.0055378
      ],
      [
       6.2226162,
       43.0055377
      ],
      [
       6.222609,
       43.0055357
      ],
      [
       6.2226035,
       43.0055323
      ],
      [
       6.2225997,
       43.0055278
      ],
      [
       6.222598,
       43.0055227
      ],
      [
       6.2225986,
       43.0055175
      ],
      [
       6.2226014,
       43.0055126
      ],
      [
       6.2226062,
       43.0055087
      ],
      [
       6.2226125,
       43.005506
      ],
      [
       6.2226196,
       43.005505
      ],
      [
       6.2226267,
       43.0055056
      ],
      [
       6.2226332,
       43.0055078
      ],
      [
       6.2226388,
       43.0055118
      ],
      [
       6.2226422,
       43.0055168
      ],
      [
       6.222643,
       43.0055224
      ]
     ]
    ]
   }
  },
  {
   "type": "Feature",
   "properties": {
    "osm_type": "way",
    "osm_id": 1382306536,
    "nom": null,
    "categorie": "fort",
    "en_ruine": false,
    "visitable_payant": null,
    "horaires": null
   },
   "geometry": {
    "type": "Polygon",
    "coordinates": [
     [
      [
       6.2224154,
       43.0054273
      ],
      [
       6.2224137,
       43.0054327
      ],
      [
       6.2224096,
       43.0054375
      ],
      [
       6.2224036,
       43.0054409
      ],
      [
       6.2223963,
       43.0054427
      ],
      [
       6.2223886,
       43.0054426
      ],
      [
       6.2223814,
       43.0054406
      ],
      [
       6.2223759,
       43.0054372
      ],
      [
       6.2223721,
       43.0054327
      ],
      [
       6.2223704,
       43.0054276
      ],
      [
       6.222371,
       43.0054224
      ],
      [
       6.2223738,
       43.0054175
      ],
      [
       6.2223786,
       43.0054136
      ],
      [
       6.2223849,
       43.0054109
      ],
      [
       6.222392,
       43.0054099
      ],
      [
       6.2223991,
       43.0054105
      ],
      [
       6.2224056,
       43.0054127
      ],
      [
       6.2224112,
       43.0054167
      ],
      [
       6.2224146,
       43.0054217
      ],
      [
       6.2224154,
       43.0054273
      ]
     ]
    ]
   }
  },
  {
   "type": "Feature",
   "properties": {
    "osm_type": "way",
    "osm_id": 1383735118,
    "nom": null,
    "categorie": "fort",
    "en_ruine": false,
    "visitable_payant": null,
    "horaires": null
   },
   "geometry": {
    "type": "Polygon",
    "coordinates": [
     [
      [
       6.2414586,
       43.024971
      ],
      [
       6.2414802,
       43.0249458
      ],
      [
       6.2414761,
       43.0249415
      ],
      [
       6.2414877,
       43.0249249
      ],
      [
       6.2415304,
       43.0249607
      ],
      [
       6.2415041,
       43.0249919
      ],
      [
       6.2414586,
       43.024971
      ]
     ]
    ]
   }
  },
  {
   "type": "Feature",
   "properties": {
    "osm_type": "relation",
    "osm_id": 6198014,
    "nom": null,
    "categorie": "fort",
    "en_ruine": false,
    "visitable_payant": null,
    "horaires": null
   },
   "geometry": {
    "type": "MultiPolygon",
    "coordinates": [
     [
      [
       [
        6.155835,
        43.0264224
       ],
       [
        6.1558087,
        43.0264031
       ],
       [
        6.1557824,
        43.0263838
       ],
       [
        6.1558357,
        43.0263431
       ],
       [
        6.1558629,
        43.0263611
       ],
       [
        6.1558901,
        43.0263791
       ],
       [
        6.155835,
        43.0264224
       ]
      ]
     ],
     [
      [
       [
        6.15576,
        43.026343
       ],
       [
        6.1557468,
        43.026343
       ],
       [
        6.155729,
        43.026343
       ],
       [
        6.155734,
        43.026402
       ],
       [
        6.1557158,
        43.0264023
       ],
       [
        6.155621,
        43.026404
       ],
       [
        6.15562,
        43.02639
       ],
       [
        6.155561,
        43.026359
       ],
       [
        6.155586,
        43.026334
       ],
       [
        6.155548,
        43.026313
       ],
       [
        6.155575,
        43.026277
       ],
       [
        6.1556096,
        43.0262988
       ],
       [
        6.155621,
        43.026306
       ],
       [
        6.155778,
        43.026302
       ],
       [
        6.155788,
        43.02633
       ],
       [
        6.15576,
        43.026337
       ],
       [
        6.15576,
        43.026343
       ]
      ]
     ],
     [
      [
       [
        6.155804,
        43.026296
       ],
       [
        6.155794,
        43.026291
       ],
       [
        6.155627,
        43.026292
       ],
       [
        6.155621,
        43.0262169
       ],
       [
        6.1556597,
        43.026203
       ],
       [
        6.1558144,
        43.0261886
       ],
       [
        6.155868,
        43.026241
       ],
       [
        6.155804,
        43.026296
       ]
      ]
     ]
    ]
   }
  },
  {
   "type": "Feature",
   "properties": {
    "osm_type": "node",
    "osm_id": 609487731,
    "nom": null,
    "categorie": "ruins",
    "en_ruine": true,
    "visitable_payant": null,
    "horaires": null
   },
   "geometry": {
    "type": "Point",
    "coordinates": [
     6.1794486,
     42.9958314
    ]
   }
  },
  {
   "type": "Feature",
   "properties": {
    "osm_type": "node",
    "osm_id": 666164340,
    "nom": "La Vigie",
    "categorie": "ruins",
    "en_ruine": true,
    "visitable_payant": null,
    "horaires": null
   },
   "geometry": {
    "type": "Point",
    "coordinates": [
     6.1883335,
     42.9940397
    ]
   }
  },
  {
   "type": "Feature",
   "properties": {
    "osm_type": "node",
    "osm_id": 12811357700,
    "nom": null,
    "categorie": "ruins",
    "en_ruine": true,
    "visitable_payant": null,
    "horaires": null
   },
   "geometry": {
    "type": "Point",
    "coordinates": [
     6.223535,
     43.0050809
    ]
   }
  }
 ]
}