{
 "type": "FeatureCollection",
 "features": [
  {
   "type": "Feature",
   "properties": {
    "osm_type": "way",
    "osm_id": 48788494,
    "nom": "Plage de l'Aiguade",
    "surface": "sand",
    "surveillee": null,
    "aire_m2_approx": 410
   },
   "geometry": {
    "type": "Polygon",
    "coordinates": [
     [
      [
       6.1763029,
       43.0067647
      ],
      [
       6.1763069,
       43.006722
      ],
      [
       6.1764128,
       43.006654
      ],
      [
       6.1765691,
       43.0066106
      ],
      [
       6.1768004,
       43.006649
      ],
      [
       6.1769223,
       43.0067537
      ],
      [
       6.1764417,
       43.0067005
      ],
      [
       6.1763029,
       43.0067647
      ]
     ]
    ]
   }
  },
  {
   "type": "Feature",
   "properties": {
    "osm_type": "way",
    "osm_id": 48890705,
    "nom": "Première Courtade",
    "surface": "sand",
    "surveillee": null,
    "aire_m2_approx": 10247
   },
   "geometry": {
    "type": "Polygon",
    "coordinates": [
     [
      [
       6.2151954,
       43.0059843
      ],
      [
       6.2146962,
       43.005339
      ],
      [
       6.2138684,
       43.004284
      ],
      [
       6.2134325,
       43.0038927
      ],
      [
       6.2126642,
       43.0033272
      ],
      [
       6.2120226,
       43.0029679
      ],
      [
       6.2112573,
       43.0026395
      ],
      [
       6.2106391,
       43.0024181
      ],
      [
       6.209992,
       43.0022298
      ],
      [
       6.2094399,
       43.0021114
      ],
      [
       6.2090207,
       43.0020362
      ],
      [
       6.2086037,
       43.0019679
      ],
      [
       6.2081213,
       43.0019142
      ],
      [
       6.2077521,
       43.0018834
      ],
      [
       6.2074405,
       43.0018816
      ],
      [
       6.2072647,
       43.001904
      ],
      [
       6.2072147,
       43.0019104
      ],
      [
       6.2071614,
       43.0019395
      ],
      [
       6.2071052,
       43.0019651
      ],
      [
       6.2070628,
       43.0020424
      ],
      [
       6.2070564,
       43.002079
      ],
      [
       6.2070031,
       43.0019965
      ],
      [
       6.2070291,
       43.0019408
      ],
      [
       6.207135,
       43.001874
      ],
      [
       6.2074103,
       43.0018217
      ],
      [
       6.2076586,
       43.001805
      ],
      [
       6.2077633,
       43.001798
      ],
      [
       6.2082295,
       43.0018211
      ],
      [
       6.2086873,
       43.0018529
      ],
      [
       6.2093574,
       43.0019734
      ],
      [
       6.2097575,
       43.0020703
      ],
      [
       6.2101108,
       43.0021621
      ],
      [
       6.2103284,
       43.0022176
      ],
      [
       6.2105244,
       43.0022696
      ],
      [
       6.2113056,
       43.002556
      ],
      [
       6.212192,
       43.0029374
      ],
      [
       6.2124448,
       43.0030461
      ],
      [
       6.2130678,
       43.0034646
      ],
      [
       6.2131417,
       43.0035319
      ],
      [
       6.2135572,
       43.0038299
      ],
      [
       6.2140508,
       43.0042291
      ],
      [
       6.2146672,
       43.0050535
      ],
      [
       6.2152508,
       43.0058592
      ],
      [
       6.2152485,
       43.0058862
      ],
      [
       6.2151954,
       43.0059843
      ]
     ]
    ]
   }
  },
  {
   "type": "Feature",
   "properties": {
    "osm_type": "way",
    "osm_id": 48890706,
    "nom": "plage du Lequin",
    "surface": "sand",
    "surveillee": null,
    "aire_m2_approx": 2751
   },
   "geometry": {
    "type": "Polygon",
    "coordinates": [
     [
      [
       6.217822,
       43.0096845
      ],
      [
       6.2174057,
       43.0089828
      ],
      [
       6.2167805,
       43.008124
      ],
      [
       6.2169781,
       43.008158
      ],
      [
       6.2170903,
       43.0083142
      ],
      [
       6.2175905,
       43.0090105
      ],
      [
       6.2178899,
       43.0094609
      ],
      [
       6.218023,
       43.0099194
      ],
      [
       6.217882,
       43.0099683
      ],
      [
       6.217822,
       43.0096845
      ]
     ]
    ]
   }
  },
  {
   "type": "Feature",
   "properties": {
    "osm_type": "way",
    "osm_id": 48904388,
    "nom": null,
    "surface": "sand",
    "surveillee": null,
    "aire_m2_approx": 1332
   },
   "geometry": {
    "type": "Polygon",
    "coordinates": [
     [
      [
       6.1933043,
       43.0042938
      ],
      [
       6.1933844,
       43.0043149
      ],
      [
       6.19329,
       43.0045057
      ],
      [
       6.1931416,
       43.0047121
      ],
      [
       6.1931139,
       43.004847
      ],
      [
       6.1931043,
       43.0049844
      ],
      [
       6.1931454,
       43.0051109
      ],
      [
       6.1933958,
       43.0051852
      ],
      [
       6.1932203,
       43.0051821
      ],
      [
       6.192921,
       43.0053156
      ],
      [
       6.193089,
       43.0052066
      ],
      [
       6.1929824,
       43.0050745
      ],
      [
       6.1929379,
       43.0048873
      ],
      [
       6.192742,
       43.004811
      ],
      [
       6.19276,
       43.004792
      ],
      [
       6.1928945,
       43.0047755
      ],
      [
       6.1931085,
       43.0046082
      ],
      [
       6.19325,
       43.0044048
      ],
      [
       6.1933043,
       43.0042938
      ]
     ]
    ]
   }
  },
  {
   "type": "Feature",
   "properties": {
    "osm_type": "way",
    "osm_id": 49270101,
    "nom": "Plage de Notre-Dame",
    "surface": "sand",
    "surveillee": null,
    "aire_m2_approx": 8651
   },
   "geometry": {
    "type": "Polygon",
    "coordinates": [
     [
      [
       6.2355788,
       43.0135225
      ],
      [
       6.23578,
       43.0137007
      ],
      [
       6.235842,
       43.0138632
      ],
      [
       6.235817,
       43.0139241
      ],
      [
       6.235501,
       43.0135826
      ],
      [
       6.235033,
       43.0128961
      ],
      [
       6.2340567,
       43.0120253
      ],
      [
       6.2332147,
       43.0114911
      ],
      [
       6.232501,
       43.011029
      ],
      [
       6.2311711,
       43.010459
      ],
      [
       6.2303016,
       43.010166
      ],
      [
       6.2296221,
       43.0100099
      ],
      [
       6.2289068,
       43.0099542
      ],
      [
       6.2282798,
       43.0100116
      ],
      [
       6.2278447,
       43.0101346
      ],
      [
       6.2275858,
       43.0102649
      ],
      [
       6.2275003,
       43.0102035
      ],
      [
       6.2275723,
       43.01017
      ],
      [
       6.2276562,
       43.0101309
      ],
      [
       6.2279406,
       43.0099985
      ],
      [
       6.2289437,
       43.0098651
      ],
      [
       6.2290772,
       43.0098734
      ],
      [
       6.2293246,
       43.0098887
      ],
      [
       6.2299952,
       43.0099867
      ],
      [
       6.2305351,
       43.0101267
      ],
      [
       6.2311641,
       43.0103659
      ],
      [
       6.2320704,
       43.0107536
      ],
      [
       6.2325367,
       43.0109419
      ],
      [
       6.2327578,
       43.0110459
      ],
      [
       6.2332245,
       43.0113597
      ],
      [
       6.2338486,
       43.0117542
      ],
      [
       6.234174,
       43.0119598
      ],
      [
       6.2345434,
       43.0123061
      ],
      [
       6.235142,
       43.0128672
      ],
      [
       6.2351989,
       43.0129525
      ],
      [
       6.2355788,
       43.0135225
      ]
     ]
    ]
   }
  },
  {
   "type": "Feature",
   "properties": {
    "osm_type": "way",
    "osm_id": 49343489,
    "nom": "Plage d'Argent",
    "surface": "sand",
    "surveillee": null,
    "aire_m2_approx": 3385
   },
   "geometry": {
    "type": "Polygon",
    "coordinates": [
     [
      [
       6.1859079,
       43.0050524
      ],
      [
       6.1860757,
       43.0049723
      ],
      [
       6.1862099,
       43.0049082
      ],
      [
       6.1866137,
       43.0046531
      ],
      [
       6.18699,
       43.0044907
      ],
      [
       6.1874987,
       43.004259
      ],
      [
       6.1878529,
       43.0040976
      ],
      [
       6.1881257,
       43.0040111
      ],
      [
       6.1883914,
       43.0039476
      ],
      [
       6.1885733,
       43.0039081
      ],
      [
       6.1889373,
       43.0039052
      ],
      [
       6.1893872,
       43.0040308
      ],
      [
       6.1894436,
       43.004062
      ],
      [
       6.1895755,
       43.0041599
      ],
      [
       6.1896692,
       43.0042197
      ],
      [
       6.1895594,
       43.0042668
      ],
      [
       6.1894325,
       43.0041602
      ],
      [
       6.1893404,
       43.0040635
      ],
      [
       6.1890829,
       43.0039889
      ],
      [
       6.188702,
       43.0039772
      ],
      [
       6.1885035,
       43.0040056
      ],
      [
       6.1883369,
       43.0040295
      ],
      [
       6.1879641,
       43.0041354
      ],
      [
       6.1875644,
       43.0043002
      ],
      [
       6.1871538,
       43.0044895
      ],
      [
       6.1870621,
       43.0045378
      ],
      [
       6.1857446,
       43.0052313
      ],
      [
       6.1854344,
       43.005481
      ],
      [
       6.1854426,
       43.0055355
      ],
      [
       6.1854187,
       43.0055529
      ],
      [
       6.1854096,
       43.0055971
      ],
      [
       6.1852658,
       43.0055202
      ],
      [
       6.1853194,
       43.0054044
      ],
      [
       6.1855007,
       43.0053017
      ],
      [
       6.1856228,
       43.0052325
      ],
      [
       6.1859079,
       43.0050524
      ]
     ]
    ]
   }
  },
  {
   "type": "Feature",
   "properties": {
    "osm_type": "way",
    "osm_id": 49396691,
    "nom": "Plage de Bon-Renaud",
    "surface": "sand",
    "surveillee": null,
    "aire_m2_approx": 1498
   },
   "geometry": {
    "type": "Polygon",
    "coordinates": [
     [
      [
       6.1848128,
       43.0064643
      ],
      [
       6.1849428,
       43.0062426
      ],
      [
       6.1850166,
       43.0061544
      ],
      [
       6.1850896,
       43.0061073
      ],
      [
       6.1851835,
       43.0061654
      ],
      [
       6.1850381,
       43.0063231
      ],
      [
       6.184963,
       43.0064957
      ],
      [
       6.1847469,
       43.0068396
      ],
      [
       6.1846894,
       43.0070174
      ],
      [
       6.184716,
       43.0071891
      ],
      [
       6.1846456,
       43.007147
      ],
      [
       6.1845553,
       43.0070527
      ],
      [
       6.1845392,
       43.0069507
      ],
      [
       6.1846089,
       43.0067938
      ],
      [
       6.1846939,
       43.0066027
      ],
      [
       6.1848128,
       43.0064643
      ]
     ]
    ]
   }
  },
  {
   "type": "Feature",
   "properties": {
    "osm_type": "way",
    "osm_id": 49479492,
    "nom": "Calanque de l'Oustaou de Diéu",
    "surface": null,
    "surveillee": null,
    "aire_m2_approx": 169
   },
   "geometry": {
    "type": "Polygon",
    "coordinates": [
     [
      [
       6.2194848,
       42.9923071
      ],
      [
       6.2194285,
       42.99231
      ],
      [
       6.2193587,
       42.9922944
      ],
      [
       6.2193292,
       42.9922453
      ],
      [
       6.2193882,
       42.9921757
      ],
      [
       6.2194405,
       42.9922021
      ],
      [
       6.2194969,
       42.9922237
      ],
      [
       6.219576,
       42.9922257
      ],
      [
       6.2194848,
       42.9923071
      ]
     ]
    ]
   }
  },
  {
   "type": "Feature",
   "properties": {
    "osm_type": "way",
    "osm_id": 49962978,
    "nom": "Plage de l'Aigadon",
    "surface": "sand",
    "surveillee": null,
    "aire_m2_approx": 571
   },
   "geometry": {
    "type": "Polygon",
    "coordinates": [
     [
      [
       6.1809473,
       43.0080855
      ],
      [
       6.1809299,
       43.0079511
      ],
      [
       6.1809736,
       43.0079079
      ],
      [
       6.1810019,
       43.0078733
      ],
      [
       6.1810985,
       43.0078431
      ],
      [
       6.1812176,
       43.0077149
      ],
      [
       6.1813122,
       43.0077621
      ],
      [
       6.1814199,
       43.0078336
      ],
      [
       6.1813953,
       43.0079138
      ],
      [
       6.1812109,
       43.0078793
      ],
      [
       6.18103,
       43.0079981
      ],
      [
       6.1809473,
       43.0080855
      ]
     ]
    ]
   }
  },
  {
   "type": "Feature",
   "properties": {
    "osm_type": "way",
    "osm_id": 50551540,
    "nom": "Deuxième Courtade",
    "surface": "sand",
    "surveillee": null,
    "aire_m2_approx": 695
   },
   "geometry": {
    "type": "Polygon",
    "coordinates": [
     [
      [
       6.2160072,
       43.0071695
      ],
      [
       6.2161751,
       43.0073179
      ],
      [
       6.2161179,
       43.0074279
      ],
      [
       6.2160219,
       43.0073267
      ],
      [
       6.2157279,
       43.0069607
      ],
      [
       6.2155982,
       43.0066691
      ],
      [
       6.2156862,
       43.0067777
      ],
      [
       6.2158524,
       43.0069235
      ],
      [
       6.2160072,
       43.0071695
      ]
     ]
    ]
   }
  },
  {
   "type": "Feature",
   "properties": {
    "osm_type": "way",
    "osm_id": 50799955,
    "nom": "Plage Noire du Langoustier",
    "surface": "sand",
    "surveillee": null,
    "aire_m2_approx": 3587
   },
   "geometry": {
    "type": "Polygon",
    "coordinates": [
     [
      [
       6.1692663,
       42.9999513
      ],
      [
       6.1691265,
       43.0001224
      ],
      [
       6.1687273,
       43.0003122
      ],
      [
       6.1683541,
       43.0003713
      ],
      [
       6.1680428,
       43.0004376
      ],
      [
       6.1677725,
       43.0004085
      ],
      [
       6.1675273,
       43.0003593
      ],
      [
       6.166915,
       43.0001437
      ],
      [
       6.1665923,
       42.9999105
      ],
      [
       6.1666314,
       42.9998211
      ],
      [
       6.1666737,
       42.9997144
      ],
      [
       6.1667488,
       42.9998047
      ],
      [
       6.1668479,
       42.9998986
      ],
      [
       6.1671018,
       43.0000771
      ],
      [
       6.1674263,
       43.0001968
      ],
      [
       6.167784,
       43.0002687
      ],
      [
       6.1685222,
       43.0002311
      ],
      [
       6.168836,
       43.0001338
      ],
      [
       6.1691128,
       42.9999379
      ],
      [
       6.1692663,
       42.9999513
      ]
     ]
    ]
   }
  },
  {
   "type": "Feature",
   "properties": {
    "osm_type": "way",
    "osm_id": 50800190,
    "nom": "Plage Blanche du Langoustier",
    "surface": "sand",
    "surveillee": null,
    "aire_m2_approx": 2864
   },
   "geometry": {
    "type": "Polygon",
    "coordinates": [
     [
      [
       6.1677547,
       43.0008568
      ],
      [
       6.1678017,
       43.0009818
      ],
      [
       6.1672898,
       43.0008205
      ],
      [
       6.1667857,
       43.0006746
      ],
      [
       6.1662171,
       43.0006903
      ],
      [
       6.1655969,
       43.0007684
      ],
      [
       6.1649015,
       43.0011566
      ],
      [
       6.165041,
       43.0009565
      ],
      [
       6.1654219,
       43.0007093
      ],
      [
       6.1665738,
       43.0005432
      ],
      [
       6.1669009,
       43.0005942
      ],
      [
       6.1669282,
       43.0005985
      ],
      [
       6.167055,
       43.000643
      ],
      [
       6.1673548,
       43.0007238
      ],
      [
       6.1677547,
       43.0008568
      ]
     ]
    ]
   }
  },
  {
   "type": "Feature",
   "properties": {
    "osm_type": "way",
    "osm_id": 51076906,
    "nom": "Plage de l'Alycastre",
    "surface": null,
    "surveillee": null,
    "aire_m2_approx": 1529
   },
   "geometry": {
    "type": "Polygon",
    "coordinates": [
     [
      [
       6.2239283,
       43.0109238
      ],
      [
       6.2240345,
       43.0110357
      ],
      [
       6.223894,
       43.0109787
      ],
      [
       6.2236217,
       43.0109336
      ],
      [
       6.2234199,
       43.011007
      ],
      [
       6.223172,
       43.01114
      ],
      [
       6.2230232,
       43.0112199
      ],
      [
       6.2226537,
       43.0114231
      ],
      [
       6.2224258,
       43.0115793
      ],
      [
       6.2223506,
       43.011732
      ],
      [
       6.2222562,
       43.0117054
      ],
      [
       6.2223545,
       43.0115141
      ],
      [
       6.2224056,
       43.011452
      ],
      [
       6.22255,
       43.0113542
      ],
      [
       6.2227421,
       43.0112242
      ],
      [
       6.2230826,
       43.011141
      ],
      [
       6.2232398,
       43.0109801
      ],
      [
       6.2236217,
       43.0108741
      ],
      [
       6.2239283,
       43.0109238
      ]
     ]
    ]
   }
  },
  {
   "type": "Feature",
   "properties": {
    "osm_type": "way",
    "osm_id": 51076995,
    "nom": "plage du Lequin",
    "surface": null,
    "surveillee": null,
    "aire_m2_approx": 288
   },
   "geometry": {
    "type": "Polygon",
    "coordinates": [
     [
      [
       6.2181774,
       43.0122583
      ],
      [
       6.2182216,
       43.0122681
      ],
      [
       6.218116,
       43.0123852
      ],
      [
       6.2180882,
       43.0125299
      ],
      [
       6.2180545,
       43.0125269
      ],
      [
       6.2179604,
       43.0124208
      ],
      [
       6.2180931,
       43.0122516
      ],
      [
       6.2181774,
       43.0122583
      ]
     ]
    ]
   }
  },
  {
   "type": "Feature",
   "properties": {
    "osm_type": "way",
    "osm_id": 51095875,
    "nom": "Calanque de Brégançonnet",
    "surface": "sand",
    "surveillee": null,
    "aire_m2_approx": 214
   },
   "geometry": {
    "type": "Polygon",
    "coordinates": [
     [
      [
       6.1818211,
       42.9951265
      ],
      [
       6.1816189,
       42.9950821
      ],
      [
       6.1817625,
       42.9950593
      ],
      [
       6.1818894,
       42.994986
      ],
      [
       6.1819747,
       42.99487
      ],
      [
       6.1819572,
       42.9950257
      ],
      [
       6.1818211,
       42.9951265
      ]
     ]
    ]
   }
  },
  {
   "type": "Feature",
   "properties": {
    "osm_type": "way",
    "osm_id": 51568488,
    "nom": null,
    "surface": null,
    "surveillee": null,
    "aire_m2_approx": 190
   },
   "geometry": {
    "type": "Polygon",
    "coordinates": [
     [
      [
       6.1683885,
       43.001313
      ],
      [
       6.1685943,
       43.0013512
      ],
      [
       6.1688732,
       43.0014218
      ],
      [
       6.168886,
       43.0015833
      ],
      [
       6.1687631,
       43.0014581
      ],
      [
       6.1685497,
       43.0013498
      ],
      [
       6.1683885,
       43.001313
      ]
     ]
    ]
   }
  },
  {
   "type": "Feature",
   "properties": {
    "osm_type": "way",
    "osm_id": 52737972,
    "nom": "Plage des Porquerollais",
    "surface": "sand",
    "surveillee": null,
    "aire_m2_approx": 426
   },
   "geometry": {
    "type": "Polygon",
    "coordinates": [
     [
      [
       6.2055259,
       43.0027049
      ],
      [
       6.2055923,
       43.0027362
      ],
      [
       6.2056589,
       43.0028198
      ],
      [
       6.2055838,
       43.0028171
      ],
      [
       6.2054387,
       43.0027829
      ],
      [
       6.205177,
       43.002708
      ],
      [
       6.2049862,
       43.0027151
      ],
      [
       6.2051421,
       43.0026649
      ],
      [
       6.2052548,
       43.0026477
      ],
      [
       6.2053321,
       43.0026441
      ],
      [
       6.205481,
       43.0026849
      ],
      [
       6.2055259,
       43.0027049
      ]
     ]
    ]
   }
  },
  {
   "type": "Feature",
   "properties": {
    "osm_type": "way",
    "osm_id": 56724138,
    "nom": null,
    "surface": "sand",
    "surveillee": null,
    "aire_m2_approx": 1086
   },
   "geometry": {
    "type": "Polygon",
    "coordinates": [
     [
      [
       6.1777458,
       43.0074598
      ],
      [
       6.1778799,
       43.0076363
      ],
      [
       6.1778459,
       43.0076853
      ],
      [
       6.1777305,
       43.0076736
      ],
      [
       6.1775477,
       43.0074598
      ],
      [
       6.1774494,
       43.0072395
      ],
      [
       6.1773294,
       43.0071563
      ],
      [
       6.1773851,
       43.0070492
      ],
      [
       6.1774534,
       43.0070322
      ],
      [
       6.1775795,
       43.0071381
      ],
      [
       6.1777458,
       43.0074598
      ]
     ]
    ]
   }
  },
  {
   "type": "Feature",
   "properties": {
    "osm_type": "way",
    "osm_id": 57835676,
    "nom": null,
    "surface": "sand",
    "surveillee": null,
    "aire_m2_approx": 74
   },
   "geometry": {
    "type": "Polygon",
    "coordinates": [
     [
      [
       6.173816,
       43.0073903
      ],
      [
       6.1739286,
       43.0074177
      ],
      [
       6.1739366,
       43.0074518
      ],
      [
       6.1736372,
       43.0074056
      ],
      [
       6.173816,
       43.0073903
      ]
     ]
    ]
   }
  },
  {
   "type": "Feature",
   "properties": {
    "osm_type": "way",
    "osm_id": 57835690,
    "nom": null,
    "surface": "sand",
    "surveillee": null,
    "aire_m2_approx": 268
   },
   "geometry": {
    "type": "Polygon",
    "coordinates": [
     [
      [
       6.1753433,
       43.0072732
      ],
      [
       6.1754426,
       43.0072614
      ],
      [
       6.1754975,
       43.0073438
      ],
      [
       6.1752849,
       43.0074104
      ],
      [
       6.1751598,
       43.0073706
      ],
      [
       6.175232,
       43.0073007
      ],
      [
       6.1753433,
       43.0072732
      ]
     ]
    ]
   }
  },
  {
   "type": "Feature",
   "properties": {
    "osm_type": "way",
    "osm_id": 74659613,
    "nom": null,
    "surface": null,
    "surveillee": null,
    "aire_m2_approx": 326
   },
   "geometry": {
    "type": "Polygon",
    "coordinates": [
     [
      [
       6.2398213,
       43.0251109
      ],
      [
       6.2399152,
       43.0250884
      ],
      [
       6.2400359,
       43.0250737
      ],
      [
       6.2401472,
       43.0250953
      ],
      [
       6.2402035,
       43.0250796
      ],
      [
       6.2402344,
       43.0251129
      ],
      [
       6.2402625,
       43.0251266
      ],
      [
       6.2403028,
       43.0251149
      ],
      [
       6.2403524,
       43.0251374
      ],
      [
       6.2403886,
       43.0251688
      ],
      [
       6.2404329,
       43.0251786
      ],
      [
       6.2405147,
       43.0251737
      ],
      [
       6.240516,
       43.0252237
      ],
      [
       6.2403578,
       43.0251737
      ],
      [
       6.2402411,
       43.0251462
      ],
      [
       6.239946,
       43.0251423
      ],
      [
       6.2397704,
       43.0251962
      ],
      [
       6.2398039,
       43.0251276
      ],
      [
       6.2398213,
       43.0251109
      ]
     ]
    ]
   }
  },
  {
   "type": "Feature",
   "properties": {
    "osm_type": "way",
    "osm_id": 84273842,
    "nom": null,
    "surface": "sand",
    "surveillee": null,
    "aire_m2_approx": 547
   },
   "geometry": {
    "type": "Polygon",
    "coordinates": [
     [
      [
       6.2170224,
       43.0121402
      ],
      [
       6.2169009,
       43.0121561
      ],
      [
       6.2169554,
       43.012098
      ],
      [
       6.2169607,
       43.0119139
      ],
      [
       6.2168206,
       43.0118023
      ],
      [
       6.2168649,
       43.0117224
      ],
      [
       6.2170024,
       43.0117571
      ],
      [
       6.2171329,
       43.012057
      ],
      [
       6.2170224,
       43.0121402
      ]
     ]
    ]
   }
  },
  {
   "type": "Feature",
   "properties": {
    "osm_type": "way",
    "osm_id": 88531903,
    "nom": null,
    "surface": null,
    "surveillee": null,
    "aire_m2_approx": 588
   },
   "geometry": {
    "type": "Polygon",
    "coordinates": [
     [
      [
       6.168952,
       43.0015931
      ],
      [
       6.1691639,
       43.0017343
      ],
      [
       6.1692632,
       43.0018461
      ],
      [
       6.1693034,
       43.0020344
      ],
      [
       6.1693168,
       43.0022423
      ],
      [
       6.1692551,
       43.0022639
      ],
      [
       6.1692545,
       43.0022418
      ],
      [
       6.1691832,
       43.0019061
      ],
      [
       6.168886,
       43.0015833
      ],
      [
       6.168952,
       43.0015931
      ]
     ]
    ]
   }
  },
  {
   "type": "Feature",
   "properties": {
    "osm_type": "way",
    "osm_id": 94692720,
    "nom": "Plage de la Chaussée",
    "surface": "sand",
    "surveillee": false,
    "aire_m2_approx": 1115
   },
   "geometry": {
    "type": "Polygon",
    "coordinates": [
     [
      [
       6.2376273,
       43.0190779
      ],
      [
       6.2378097,
       43.019223
      ],
      [
       6.237976,
       43.0194074
      ],
      [
       6.2380135,
       43.0196153
      ],
      [
       6.2379491,
       43.0198114
      ],
      [
       6.2378311,
       43.0199643
      ],
      [
       6.2377731,
       43.0198632
      ],
      [
       6.2378649,
       43.0196953
      ],
      [
       6.2378367,
       43.0194505
      ],
      [
       6.2377582,
       43.0193013
      ],
      [
       6.2374592,
       43.019115
      ],
      [
       6.2375686,
       43.0191081
      ],
      [
       6.2376273,
       43.0190779
      ]
     ]
    ]
   }
  },
  {
   "type": "Feature",
   "properties": {
    "osm_type": "way",
    "osm_id": 504739938,
    "nom": null,
    "surface": "gravel",
    "surveillee": false,
    "aire_m2_approx": 376
   },
   "geometry": {
    "type": "Polygon",
    "coordinates": [
     [
      [
       6.1665509,
       42.9993267
      ],
      [
       6.1665207,
       42.999297
      ],
      [
       6.166494,
       42.9991481
      ],
      [
       6.1664982,
       42.9989958
      ],
      [
       6.1666274,
       42.9990182
      ],
      [
       6.1667619,
       42.9990713
      ],
      [
       6.1666294,
       42.9991502
      ],
      [
       6.1665509,
       42.9993267
      ]
     ]
    ]
   }
  },
  {
   "type": "Feature",
   "properties": {
    "osm_type": "way",
    "osm_id": 835136722,
    "nom": null,
    "surface": "sand",
    "surveillee": null,
    "aire_m2_approx": 185
   },
   "geometry": {
    "type": "Polygon",
    "coordinates": [
     [
      [
       6.1590734,
       43.0290371
      ],
      [
       6.159016,
       43.0290191
      ],
      [
       6.1589456,
       43.0290241
      ],
      [
       6.1589328,
       43.0290317
      ],
      [
       6.1589276,
       43.0291109
      ],
      [
       6.1590022,
       43.0291802
      ],
      [
       6.1590467,
       43.0292837
      ],
      [
       6.1590962,
       43.0292914
      ],
      [
       6.1591109,
       43.0292727
      ],
      [
       6.1590768,
       43.029256
      ],
      [
       6.1590466,
       43.0292242
      ],
      [
       6.1590466,
       43.0291604
      ],
      [
       6.1590729,
       43.0291432
      ],
      [
       6.1590379,
       43.0291207
      ],
      [
       6.1590322,
       43.029072
      ],
      [
       6.1590734,
       43.0290371
      ]
     ]
    ]
   }
  },
  {
   "type": "Feature",
   "properties": {
    "osm_type": "way",
    "osm_id": 971668558,
    "nom": "Plage de la Galère",
    "surface": null,
    "surveillee": null,
    "aire_m2_approx": 554
   },
   "geometry": {
    "type": "Polygon",
    "coordinates": [
     [
      [
       6.2493308,
       43.0038849
      ],
      [
       6.2492229,
       43.0037629
      ],
      [
       6.2493723,
       43.0035554
      ],
      [
       6.2492219,
       43.0035496
      ],
      [
       6.2491534,
       43.0036168
      ],
      [
       6.2490564,
       43.0038157
      ],
      [
       6.2491805,
       43.0039267
      ],
      [
       6.2493308,
       43.0038849
      ]
     ]
    ]
   }
  },
  {
   "type": "Feature",
   "properties": {
    "osm_type": "way",
    "osm_id": 1073387373,
    "nom": "Anse Pierrot-le-Fou",
    "surface": null,
    "surveillee": false,
    "aire_m2_approx": 56
   },
   "geometry": {
    "type": "Polygon",
    "coordinates": [
     [
      [
       6.237037,
       43.0161068
      ],
      [
       6.2370934,
       43.0160979
      ],
      [
       6.2370142,
       43.0159376
      ],
      [
       6.2369858,
       43.0159429
      ],
      [
       6.2370334,
       43.0160499
      ],
      [
       6.237037,
       43.0161068
      ]
     ]
    ]
   }
  },
  {
   "type": "Feature",
   "properties": {
    "osm_type": "node",
    "osm_id": 14018638185,
    "nom": "Plage du Grand Langoustier",
    "surface": null,
    "surveillee": null,
    "aire_m2_approx": null
   },
   "geometry": {
    "type": "Point",
    "coordinates": [
     6.169172,
     43.0018177
    ]
   }
  },
  {
   "type": "Feature",
   "properties": {
    "osm_type": "node",
    "osm_id": 14019392889,
    "nom": "Criques Saint-Jean-Baptiste",
    "surface": null,
    "surveillee": null,
    "aire_m2_approx": null
   },
   "geometry": {
    "type": "Point",
    "coordinates": [
     6.1745465,
     43.0077877
    ]
   }
  },
  {
   "type": "Feature",
   "properties": {
    "osm_type": "node",
    "osm_id": 14019392892,
    "nom": "Plage de la Chère Patrie",
    "surface": null,
    "surveillee": null,
    "aire_m2_approx": null
   },
   "geometry": {
    "type": "Point",
    "coordinates": [
     6.1776759,
     43.0075145
    ]
   }
  },
  {
   "type": "Feature",
   "properties": {
    "osm_type": "node",
    "osm_id": 14019410033,
    "nom": "Calanque du Mas du Langoustier",
    "surface": null,
    "surveillee": null,
    "aire_m2_approx": null
   },
   "geometry": {
    "type": "Point",
    "coordinates": [
     6.169034,
     43.0031189
    ]
   }
  },
  {
   "type": "Feature",
   "properties": {
    "osm_type": "node",
    "osm_id": 14019410034,
    "nom": "Calanque Saint-Étienne",
    "surface": null,
    "surveillee": null,
    "aire_m2_approx": null
   },
   "geometry": {
    "type": "Point",
    "coordinates": [
     6.1690677,
     43.0040226
    ]
   }
  },
  {
   "type": "Feature",
   "properties": {
    "osm_type": "node",
    "osm_id": 14019410035,
    "nom": "Plage des Maures",
    "surface": null,
    "surveillee": null,
    "aire_m2_approx": null
   },
   "geometry": {
    "type": "Point",
    "coordinates": [
     6.1723461,
     43.007253
    ]
   }
  },
  {
   "type": "Feature",
   "properties": {
    "osm_type": "node",
    "osm_id": 14019587453,
    "nom": "Anse des Savoyards",
    "surface": null,
    "surveillee": null,
    "aire_m2_approx": null
   },
   "geometry": {
    "type": "Point",
    "coordinates": [
     6.2363251,
     43.0147621
    ]
   }
  },
  {
   "type": "Feature",
   "properties": {
    "osm_type": "node",
    "osm_id": 14019587455,
    "nom": "Calanque de la Treille",
    "surface": null,
    "surveillee": null,
    "aire_m2_approx": null
   },
   "geometry": {
    "type": "Point",
    "coordinates": [
     6.2368306,
     43.0178891
    ]
   }
  },
  {
   "type": "Feature",
   "properties": {
    "osm_type": "node",
    "osm_id": 14019604003,
    "nom": "Crique de l'Ermite",
    "surface": null,
    "surveillee": null,
    "aire_m2_approx": null
   },
   "geometry": {
    "type": "Point",
    "coordinates": [
     6.2385304,
     43.020768
    ]
   }
  }
 ]
}