{
  "type": "FeatureCollection",
  "properties": {
    "source": "derive de socle-osm/plages.geojson (OSM, ODbL)",
    "methode": "decoupage geometrique en parts d'egale longueur le long de l'axe principal (ACP sur les sommets), d'ouest en est, par clipping Sutherland-Hodgman. HEURISTIQUE, pas une donnee : OSM ne dit pas ou s'arrete un tiers de plage.",
    "genere_par": "conception/moteur/precompute/segments.py"
  },
  "features": [
    {
      "type": "Feature",
      "properties": {
        "lieu_id": "courtade-ouest",
        "nom_osm": "Première Courtade",
        "osm_id": 48890705,
        "decoupe": true,
        "aire_m2_approx": 3239
      },
      "geometry": {
        "type": "Polygon",
        "coordinates": [
          [
            [
              6.210469884032237,
              43.00236885974852
            ],
            [
              6.209992,
              43.0022298
            ],
            [
              6.2094399,
              43.0021114
            ],
            [
              6.2090207,
              43.0020362
            ],
            [
              6.2086037,
              43.0019679
            ],
            [
              6.2081213,
              43.0019142
            ],
            [
              6.2077521,
              43.0018834
            ],
            [
              6.2074405,
              43.0018816
            ],
            [
              6.2072647,
              43.001904
            ],
            [
              6.2072147,
              43.0019104
            ],
            [
              6.2071614,
              43.0019395
            ],
            [
              6.2071052,
              43.0019651
            ],
            [
              6.2070628,
              43.0020424
            ],
            [
              6.2070564,
              43.002079
            ],
            [
              6.2070031,
              43.0019965
            ],
            [
              6.2070291,
              43.0019408
            ],
            [
              6.207135,
              43.001874
            ],
            [
              6.2074103,
              43.0018217
            ],
            [
              6.2076586,
              43.001805
            ],
            [
              6.2077633,
              43.001798
            ],
            [
              6.2082295,
              43.0018211
            ],
            [
              6.2086873,
              43.0018529
            ],
            [
              6.2093574,
              43.0019734
            ],
            [
              6.2097575,
              43.0020703
            ],
            [
              6.2101108,
              43.0021621
            ],
            [
              6.2103284,
              43.0022176
            ],
            [
              6.2105244,
              43.0022696
            ],
            [
              6.2105423116609595,
              43.00227616669188
            ],
            [
              6.210469884032237,
              43.00236885974852
            ]
          ]
        ]
      }
    },
    {
      "type": "Feature",
      "properties": {
        "lieu_id": "courtade-centre",
        "nom_osm": "Première Courtade",
        "osm_id": 48890705,
        "decoupe": true,
        "aire_m2_approx": 2962
      },
      "geometry": {
        "type": "Polygon",
        "coordinates": [
          [
            [
              6.213192491314425,
              43.00371604386087
            ],
            [
              6.2126642,
              43.0033272
            ],
            [
              6.2120226,
              43.0029679
            ],
            [
              6.2112573,
              43.0026395
            ],
            [
              6.2106391,
              43.0024181
            ],
            [
              6.210469884032237,
              43.00236885974852
            ],
            [
              6.2105423116609595,
              43.00227616669188
            ],
            [
              6.2113056,
              43.002556
            ],
            [
              6.212192,
              43.0029374
            ],
            [
              6.2124448,
              43.0030461
            ],
            [
              6.2130678,
              43.0034646
            ],
            [
              6.2131417,
              43.0035319
            ],
            [
              6.213266459831245,
              43.00362137877187
            ],
            [
              6.213192491314425,
              43.00371604386087
            ]
          ]
        ]
      }
    },
    {
      "type": "Feature",
      "properties": {
        "lieu_id": "courtade-est",
        "nom_osm": "Première Courtade",
        "osm_id": 48890705,
        "decoupe": true,
        "aire_m2_approx": 4000
      },
      "geometry": {
        "type": "Polygon",
        "coordinates": [
          [
            [
              6.2151954,
              43.0059843
            ],
            [
              6.2146962,
              43.005339
            ],
            [
              6.2138684,
              43.004284
            ],
            [
              6.2134325,
              43.0038927
            ],
            [
              6.213192491314425,
              43.00371604386087
            ],
            [
              6.213266459831245,
              43.00362137877187
            ],
            [
              6.2135572,
              43.0038299
            ],
            [
              6.2140508,
              43.0042291
            ],
            [
              6.2146672,
              43.0050535
            ],
            [
              6.2152508,
              43.0058592
            ],
            [
              6.2152485,
              43.0058862
            ],
            [
              6.2151954,
              43.0059843
            ]
          ]
        ]
      }
    },
    {
      "type": "Feature",
      "properties": {
        "lieu_id": "lequin",
        "nom_osm": "plage du Lequin",
        "osm_id": 48890706,
        "decoupe": false
      },
      "geometry": {
        "type": "Polygon",
        "coordinates": [
          [
            [
              6.217822,
              43.0096845
            ],
            [
              6.2174057,
              43.0089828
            ],
            [
              6.2167805,
              43.008124
            ],
            [
              6.2169781,
              43.008158
            ],
            [
              6.2170903,
              43.0083142
            ],
            [
              6.2175905,
              43.0090105
            ],
            [
              6.2178899,
              43.0094609
            ],
            [
              6.218023,
              43.0099194
            ],
            [
              6.217882,
              43.0099683
            ],
            [
              6.217822,
              43.0096845
            ]
          ]
        ]
      }
    },
    {
      "type": "Feature",
      "properties": {
        "lieu_id": "notre-dame-ouest",
        "nom_osm": "Plage de Notre-Dame",
        "osm_id": 49270101,
        "decoupe": true,
        "aire_m2_approx": 3000
      },
      "geometry": {
        "type": "Polygon",
        "coordinates": [
          [
            [
              6.231111633871247,
              43.01043896138502
            ],
            [
              6.2303016,
              43.010166
            ],
            [
              6.2296221,
              43.0100099
            ],
            [
              6.2289068,
              43.0099542
            ],
            [
              6.2282798,
              43.0100116
            ],
            [
              6.2278447,
              43.0101346
            ],
            [
              6.2275858,
              43.0102649
            ],
            [
              6.2275003,
              43.0102035
            ],
            [
              6.2275723,
              43.01017
            ],
            [
              6.2276562,
              43.0101309
            ],
            [
              6.2279406,
              43.0099985
            ],
            [
              6.2289437,
              43.0098651
            ],
            [
              6.2290772,
              43.0098734
            ],
            [
              6.2293246,
              43.0098887
            ],
            [
              6.2299952,
              43.0099867
            ],
            [
              6.2305351,
              43.0101267
            ],
            [
              6.2311641,
              43.0103659
            ],
            [
              6.231170399885272,
              43.01036859498568
            ],
            [
              6.231111633871247,
              43.01043896138502
            ]
          ]
        ]
      }
    },
    {
      "type": "Feature",
      "properties": {
        "lieu_id": "notre-dame-centre",
        "nom_osm": "Plage de Notre-Dame",
        "osm_id": 49270101,
        "decoupe": true,
        "aire_m2_approx": 2732
      },
      "geometry": {
        "type": "Polygon",
        "coordinates": [
          [
            [
              6.233754769637111,
              43.01183374275551
            ],
            [
              6.2332147,
              43.0114911
            ],
            [
              6.232501,
              43.011029
            ],
            [
              6.2311711,
              43.010459
            ],
            [
              6.231111633871247,
              43.01043896138502
            ],
            [
              6.231170399885272,
              43.01036859498568
            ],
            [
              6.2320704,
              43.0107536
            ],
            [
              6.2325367,
              43.0109419
            ],
            [
              6.2327578,
              43.0110459
            ],
            [
              6.2332245,
              43.0113597
            ],
            [
              6.2338306664094,
              43.01174286399376
            ],
            [
              6.233754769637111,
              43.01183374275551
            ]
          ]
        ]
      }
    },
    {
      "type": "Feature",
      "properties": {
        "lieu_id": "notre-dame-est",
        "nom_osm": "Plage de Notre-Dame",
        "osm_id": 49270101,
        "decoupe": true,
        "aire_m2_approx": 2882
      },
      "geometry": {
        "type": "Polygon",
        "coordinates": [
          [
            [
              6.2355788,
              43.0135225
            ],
            [
              6.23578,
              43.0137007
            ],
            [
              6.235842,
              43.0138632
            ],
            [
              6.235817,
              43.0139241
            ],
            [
              6.235501,
              43.0135826
            ],
            [
              6.235033,
              43.0128961
            ],
            [
              6.2340567,
              43.0120253
            ],
            [
              6.233754769637111,
              43.01183374275551
            ],
            [
              6.2338306664094,
              43.01174286399376
            ],
            [
              6.2338486,
              43.0117542
            ],
            [
              6.234174,
              43.0119598
            ],
            [
              6.2345434,
              43.0123061
            ],
            [
              6.235142,
              43.0128672
            ],
            [
              6.2351989,
              43.0129525
            ],
            [
              6.2355788,
              43.0135225
            ]
          ]
        ]
      }
    },
    {
      "type": "Feature",
      "properties": {
        "lieu_id": "argent-ouest",
        "nom_osm": "Plage d'Argent",
        "osm_id": 49343489,
        "decoupe": true,
        "aire_m2_approx": 1159
      },
      "geometry": {
        "type": "Polygon",
        "coordinates": [
          [
            [
              6.1859079,
              43.0050524
            ],
            [
              6.1860757,
              43.0049723
            ],
            [
              6.1862099,
              43.0049082
            ],
            [
              6.186493684735605,
              43.004728919450095
            ],
            [
              6.18654725215165,
              43.004808803402526
            ],
            [
              6.1857446,
              43.0052313
            ],
            [
              6.1854344,
              43.005481
            ],
            [
              6.1854426,
              43.0055355
            ],
            [
              6.1854187,
              43.0055529
            ],
            [
              6.1854096,
              43.0055971
            ],
            [
              6.1852658,
              43.0055202
            ],
            [
              6.1853194,
              43.0054044
            ],
            [
              6.1855007,
              43.0053017
            ],
            [
              6.1856228,
              43.0052325
            ],
            [
              6.1859079,
              43.0050524
            ]
          ]
        ]
      }
    },
    {
      "type": "Feature",
      "properties": {
        "lieu_id": "argent-centre",
        "nom_osm": "Plage d'Argent",
        "osm_id": 49343489,
        "decoupe": true,
        "aire_m2_approx": 1033
      },
      "geometry": {
        "type": "Polygon",
        "coordinates": [
          [
            [
              6.186493684735605,
              43.004728919450095
            ],
            [
              6.1866137,
              43.0046531
            ],
            [
              6.18699,
              43.0044907
            ],
            [
              6.1874987,
              43.004259
            ],
            [
              6.187834466414634,
              43.00410599971959
            ],
            [
              6.187877989174084,
              43.00417090428849
            ],
            [
              6.1875644,
              43.0043002
            ],
            [
              6.1871538,
              43.0044895
            ],
            [
              6.1870621,
              43.0045378
            ],
            [
              6.18654725215165,
              43.004808803402526
            ],
            [
              6.186493684735605,
              43.004728919450095
            ]
          ]
        ]
      }
    },
    {
      "type": "Feature",
      "properties": {
        "lieu_id": "argent-est",
        "nom_osm": "Plage d'Argent",
        "osm_id": 49343489,
        "decoupe": true,
        "aire_m2_approx": 1178
      },
      "geometry": {
        "type": "Polygon",
        "coordinates": [
          [
            [
              6.187834466414634,
              43.00410599971959
            ],
            [
              6.1878529,
              43.0040976
            ],
            [
              6.1881257,
              43.0040111
            ],
            [
              6.1883914,
              43.0039476
            ],
            [
              6.1885733,
              43.0039081
            ],
            [
              6.1889373,
              43.0039052
            ],
            [
              6.1893872,
              43.0040308
            ],
            [
              6.1894436,
              43.004062
            ],
            [
              6.1895755,
              43.0041599
            ],
            [
              6.1896692,
              43.0042197
            ],
            [
              6.1895594,
              43.0042668
            ],
            [
              6.1894325,
              43.0041602
            ],
            [
              6.1893404,
              43.0040635
            ],
            [
              6.1890829,
              43.0039889
            ],
            [
              6.188702,
              43.0039772
            ],
            [
              6.1885035,
              43.0040056
            ],
            [
              6.1883369,
              43.0040295
            ],
            [
              6.1879641,
              43.0041354
            ],
            [
              6.187877989174084,
              43.00417090428849
            ],
            [
              6.187834466414634,
              43.00410599971959
            ]
          ]
        ]
      }
    },
    {
      "type": "Feature",
      "properties": {
        "lieu_id": "langoustier-noire",
        "nom_osm": "Plage Noire du Langoustier",
        "osm_id": 50799955,
        "decoupe": false
      },
      "geometry": {
        "type": "Polygon",
        "coordinates": [
          [
            [
              6.1692663,
              42.9999513
            ],
            [
              6.1691265,
              43.0001224
            ],
            [
              6.1687273,
              43.0003122
            ],
            [
              6.1683541,
              43.0003713
            ],
            [
              6.1680428,
              43.0004376
            ],
            [
              6.1677725,
              43.0004085
            ],
            [
              6.1675273,
              43.0003593
            ],
            [
              6.166915,
              43.0001437
            ],
            [
              6.1665923,
              42.9999105
            ],
            [
              6.1666314,
              42.9998211
            ],
            [
              6.1666737,
              42.9997144
            ],
            [
              6.1667488,
              42.9998047
            ],
            [
              6.1668479,
              42.9998986
            ],
            [
              6.1671018,
              43.0000771
            ],
            [
              6.1674263,
              43.0001968
            ],
            [
              6.167784,
              43.0002687
            ],
            [
              6.1685222,
              43.0002311
            ],
            [
              6.168836,
              43.0001338
            ],
            [
              6.1691128,
              42.9999379
            ],
            [
              6.1692663,
              42.9999513
            ]
          ]
        ]
      }
    },
    {
      "type": "Feature",
      "properties": {
        "lieu_id": "langoustier-blanche",
        "nom_osm": "Plage Blanche du Langoustier",
        "osm_id": 50800190,
        "decoupe": false
      },
      "geometry": {
        "type": "Polygon",
        "coordinates": [
          [
            [
              6.1677547,
              43.0008568
            ],
            [
              6.1678017,
              43.0009818
            ],
            [
              6.1672898,
              43.0008205
            ],
            [
              6.1667857,
              43.0006746
            ],
            [
              6.1662171,
              43.0006903
            ],
            [
              6.1655969,
              43.0007684
            ],
            [
              6.1649015,
              43.0011566
            ],
            [
              6.165041,
              43.0009565
            ],
            [
              6.1654219,
              43.0007093
            ],
            [
              6.1665738,
              43.0005432
            ],
            [
              6.1669009,
              43.0005942
            ],
            [
              6.1669282,
              43.0005985
            ],
            [
              6.167055,
              43.000643
            ],
            [
              6.1673548,
              43.0007238
            ],
            [
              6.1677547,
              43.0008568
            ]
          ]
        ]
      }
    },
    {
      "type": "Feature",
      "properties": {
        "lieu_id": "lequin",
        "nom_osm": "plage du Lequin",
        "osm_id": 51076995,
        "decoupe": false
      },
      "geometry": {
        "type": "Polygon",
        "coordinates": [
          [
            [
              6.2181774,
              43.0122583
            ],
            [
              6.2182216,
              43.0122681
            ],
            [
              6.218116,
              43.0123852
            ],
            [
              6.2180882,
              43.0125299
            ],
            [
              6.2180545,
              43.0125269
            ],
            [
              6.2179604,
              43.0124208
            ],
            [
              6.2180931,
              43.0122516
            ],
            [
              6.2181774,
              43.0122583
            ]
          ]
        ]
      }
    }
  ]
}