{
  "type": "FeatureCollection",
  "properties": {
    "source": "OSM/Overpass, relation 3374962, natural=coastline",
    "licence": "ODbL, (c) les contributeurs OpenStreetMap",
    "projection": "equirectangulaire, origine lat=43.004 lon=6.205, unites metres",
    "simplification": "Douglas-Peucker epsilon=15.0m"
  },
  "features": [
    {
      "type": "Feature",
      "properties": {
        "rang": 0,
        "points": 539
      },
      "geometry": {
        "type": "Polygon",
        "coordinates": [
          [
            [
              6.192087,
              43.004752
            ],
            [
              6.191423,
              43.004567
            ],
            [
              6.189619,
              43.004593
            ],
            [
              6.18934,
              43.004064
            ],
            [
              6.188702,
              43.003977
            ],
            [
              6.187564,
              43.0043
            ],
            [
              6.185745,
              43.005231
            ],
            [
              6.185434,
              43.005481
            ],
            [
              6.18571,
              43.00565
            ],
            [
              6.185558,
              43.006029
            ],
            [
              6.185038,
              43.006323
            ],
            [
              6.184689,
              43.007017
            ],
            [
              6.186076,
              43.007927
            ],
            [
              6.185278,
              43.008661
            ],
            [
              6.183901,
              43.008715
            ],
            [
              6.184196,
              43.008355
            ],
            [
              6.18366,
              43.008413
            ],
            [
              6.182918,
              43.008202
            ],
            [
              6.183078,
              43.00809
            ],
            [
              6.182542,
              43.008186
            ],
            [
              6.181737,
              43.007934
            ],
            [
              6.181887,
              43.008159
            ],
            [
              6.181211,
              43.007879
            ],
            [
              6.180869,
              43.008332
            ],
            [
              6.181032,
              43.008897
            ],
            [
              6.179297,
              43.008816
            ],
            [
              6.179137,
              43.00851
            ],
            [
              6.178369,
              43.008599
            ],
            [
              6.177561,
              43.008286
            ],
            [
              6.177731,
              43.007674
            ],
            [
              6.177449,
              43.007239
            ],
            [
              6.176922,
              43.006754
            ],
            [
              6.176442,
              43.006701
            ],
            [
              6.17584,
              43.006949
            ],
            [
              6.175259,
              43.00766
            ],
            [
              6.17455,
              43.007604
            ],
            [
              6.173767,
              43.008231
            ],
            [
              6.173385,
              43.008188
            ],
            [
              6.173417,
              43.00861
            ],
            [
              6.17239,
              43.009216
            ],
            [
              6.171918,
              43.008699
            ],
            [
              6.172561,
              43.008226
            ],
            [
              6.173669,
              43.007904
            ],
            [
              6.173937,
              43.007452
            ],
            [
              6.171656,
              43.007279
            ],
            [
              6.172768,
              43.006829
            ],
            [
              6.172028,
              43.006805
            ],
            [
              6.171284,
              43.006411
            ],
            [
              6.170434,
              43.006568
            ],
            [
              6.169588,
              43.00615
            ],
            [
              6.169883,
              43.005836
            ],
            [
              6.1694,
              43.005769
            ],
            [
              6.16979,
              43.005634
            ],
            [
              6.169413,
              43.005636
            ],
            [
              6.170648,
              43.005348
            ],
            [
              6.170655,
              43.005142
            ],
            [
              6.16945,
              43.004728
            ],
            [
              6.169687,
              43.004614
            ],
            [
              6.169226,
              43.004595
            ],
            [
              6.169363,
              43.004197
            ],
            [
              6.16887,
              43.004237
            ],
            [
              6.169293,
              43.003466
            ],
            [
              6.168769,
              43.002491
            ],
            [
              6.169255,
              43.002242
            ],
            [
              6.168763,
              43.001458
            ],
            [
              6.168342,
              43.001281
            ],
            [
              6.167838,
              43.001458
            ],
            [
              6.167802,
              43.000982
            ],
            [
              6.166786,
              43.000675
            ],
            [
              6.165597,
              43.000768
            ],
            [
              6.164416,
              43.001633
            ],
            [
              6.163456,
              43.001905
            ],
            [
              6.163274,
              43.001761
            ],
            [
              6.162751,
              43.001968
            ],
            [
              6.162417,
              43.001861
            ],
            [
              6.162035,
              43.002066
            ],
            [
              6.162188,
              43.002237
            ],
            [
              6.161146,
              43.001884
            ],
            [
              6.159688,
              43.001925
            ],
            [
              6.159736,
              43.001623
            ],
            [
              6.160352,
              43.001431
            ],
            [
              6.160318,
              43.001263
            ],
            [
              6.160879,
              43.001458
            ],
            [
              6.160699,
              43.001065
            ],
            [
              6.16231,
              43.000326
            ],
            [
              6.162243,
              43.000049
            ],
            [
              6.16171,
              42.999857
            ],
            [
              6.161769,
              42.999647
            ],
            [
              6.161273,
              42.999851
            ],
            [
              6.16161,
              42.99956
            ],
            [
              6.161208,
              42.99909
            ],
            [
              6.161611,
              42.998788
            ],
            [
              6.161973,
              42.998878
            ],
            [
              6.161791,
              42.998676
            ],
            [
              6.1623,
              42.998231
            ],
            [
              6.163327,
              42.998093
            ],
            [
              6.164102,
              42.998605
            ],
            [
              6.164453,
              42.998458
            ],
            [
              6.164184,
              42.998001
            ],
            [
              6.165424,
              42.998107
            ],
            [
              6.165556,
              42.9991
            ],
            [
              6.166178,
              42.998901
            ],
            [
              6.166335,
              42.998528
            ],
            [
              6.166921,
              42.998515
            ],
            [
              6.167103,
              42.998788
            ],
            [
              6.167459,
              42.998768
            ],
            [
              6.166551,
              42.999327
            ],
            [
              6.166749,
              42.999805
            ],
            [
              6.167426,
              43.000197
            ],
            [
              6.168522,
              43.000231
            ],
            [
              6.169113,
              42.999938
            ],
            [
              6.169252,
              42.999531
            ],
            [
              6.169024,
              42.99951
            ],
            [
              6.169242,
              42.999262
            ],
            [
              6.168808,
              42.998964
            ],
            [
              6.168894,
              42.998707
            ],
            [
              6.168504,
              42.998505
            ],
            [
              6.168882,
              42.998055
            ],
            [
              6.169249,
              42.998031
            ],
            [
              6.169069,
              42.997783
            ],
            [
              6.169451,
              42.997704
            ],
            [
              6.169144,
              42.997597
            ],
            [
              6.169276,
              42.997322
            ],
            [
              6.169751,
              42.997181
            ],
            [
              6.169532,
              42.996919
            ],
            [
              6.170089,
              42.99679
            ],
            [
              6.170565,
              42.997038
            ],
            [
              6.171616,
              42.99673
            ],
            [
              6.17136,
              42.996323
            ],
            [
              6.171747,
              42.996365
            ],
            [
              6.172292,
              42.996071
            ],
            [
              6.172008,
              42.995978
            ],
            [
              6.172067,
              42.995664
            ],
            [
              6.173493,
              42.995818
            ],
            [
              6.173382,
              42.996132
            ],
            [
              6.173735,
              42.996448
            ],
            [
              6.174136,
              42.996124
            ],
            [
              6.174319,
              42.996654
            ],
            [
              6.174651,
              42.996607
            ],
            [
              6.174704,
              42.996122
            ],
            [
              6.175017,
              42.996449
            ],
            [
              6.174869,
              42.996616
            ],
            [
              6.175376,
              42.996392
            ],
            [
              6.175858,
              42.996572
            ],
            [
              6.175711,
              42.99677
            ],
            [
              6.17617,
              42.996786
            ],
            [
              6.176077,
              42.997071
            ],
            [
              6.176281,
              42.996913
            ],
            [
              6.177154,
              42.997076
            ],
            [
              6.177383,
              42.997
            ],
            [
              6.177251,
              42.996207
            ],
            [
              6.177849,
              42.99582
            ],
            [
              6.1778,
              42.995613
            ],
            [
              6.178516,
              42.995448
            ],
            [
              6.178247,
              42.995078
            ],
            [
              6.178899,
              42.995121
            ],
            [
              6.17888,
              42.994922
            ],
            [
              6.179275,
              42.995027
            ],
            [
              6.180078,
              42.994733
            ],
            [
              6.179357,
              42.994619
            ],
            [
              6.178462,
              42.994065
            ],
            [
              6.178992,
              42.993604
            ],
            [
              6.179784,
              42.993446
            ],
            [
              6.180148,
              42.993593
            ],
            [
              6.180761,
              42.994567
            ],
            [
              6.181762,
              42.995059
            ],
            [
              6.181975,
              42.99487
            ],
            [
              6.181444,
              42.994333
            ],
            [
              6.181579,
              42.993826
            ],
            [
              6.181813,
              42.994017
            ],
            [
              6.181877,
              42.993678
            ],
            [
              6.182816,
              42.993383
            ],
            [
              6.18354,
              42.992451
            ],
            [
              6.184315,
              42.992165
            ],
            [
              6.183846,
              42.99213
            ],
            [
              6.184302,
              42.991769
            ],
            [
              6.184799,
              42.991958
            ],
            [
              6.184607,
              42.992148
            ],
            [
              6.185412,
              42.993085
            ],
            [
              6.186185,
              42.993218
            ],
            [
              6.189124,
              42.992002
            ],
            [
              6.189061,
              42.99179
            ],
            [
              6.189649,
              42.991645
            ],
            [
              6.189697,
              42.991312
            ],
            [
              6.190594,
              42.991158
            ],
            [
              6.190493,
              42.990971
            ],
            [
              6.192278,
              42.990974
            ],
            [
              6.193157,
              42.990827
            ],
            [
              6.193015,
              42.990655
            ],
            [
              6.193524,
              42.990616
            ],
            [
              6.193282,
              42.990465
            ],
            [
              6.194159,
              42.990374
            ],
            [
              6.19424,
              42.990092
            ],
            [
              6.194591,
              42.990066
            ],
            [
              6.194415,
              42.989686
            ],
            [
              6.193676,
              42.989343
            ],
            [
              6.194004,
              42.989258
            ],
            [
              6.193998,
              42.988911
            ],
            [
              6.195275,
              42.988782
            ],
            [
              6.197401,
              42.987996
            ],
            [
              6.197064,
              42.987115
            ],
            [
              6.197796,
              42.986286
            ],
            [
              6.196694,
              42.986477
            ],
            [
              6.195968,
              42.986207
            ],
            [
              6.195471,
              42.9855
            ],
            [
              6.195928,
              42.985351
            ],
            [
              6.195801,
              42.98506
            ],
            [
              6.196461,
              42.984746
            ],
            [
              6.19577,
              42.984665
            ],
            [
              6.195459,
              42.984216
            ],
            [
              6.196508,
              42.983219
            ],
            [
              6.197102,
              42.983285
            ],
            [
              6.197313,
              42.983023
            ],
            [
              6.196811,
              42.982975
            ],
            [
              6.198301,
              42.982801
            ],
            [
              6.198188,
              42.982464
            ],
            [
              6.197652,
              42.982345
            ],
            [
              6.197815,
              42.98221
            ],
            [
              6.198459,
              42.982377
            ],
            [
              6.19838,
              42.982165
            ],
            [
              6.199811,
              42.982144
            ],
            [
              6.199944,
              42.982425
            ],
            [
              6.20138,
              42.982413
            ],
            [
              6.201475,
              42.982707
            ],
            [
              6.201902,
              42.982344
            ],
            [
              6.20303,
              42.982643
            ],
            [
              6.20296,
              42.982502
            ],
            [
              6.203857,
              42.982381
            ],
            [
              6.204076,
              42.982588
            ],
            [
              6.205271,
              42.982445
            ],
            [
              6.206056,
              42.982736
            ],
            [
              6.205464,
              42.982368
            ],
            [
              6.206472,
              42.982457
            ],
            [
              6.207305,
              42.982829
            ],
            [
              6.2072,
              42.983011
            ],
            [
              6.207703,
              42.98304
            ],
            [
              6.208114,
              42.983549
            ],
            [
              6.208393,
              42.98353
            ],
            [
              6.20821,
              42.983253
            ],
            [
              6.208523,
              42.983335
            ],
            [
              6.208592,
              42.983821
            ],
            [
              6.209117,
              42.984257
            ],
            [
              6.209601,
              42.984205
            ],
            [
              6.20895,
              42.984917
            ],
            [
              6.209208,
              42.985075
            ],
            [
              6.208885,
              42.985547
            ],
            [
              6.209218,
              42.985526
            ],
            [
              6.209148,
              42.985743
            ],
            [
              6.21031,
              42.985734
            ],
            [
              6.210847,
              42.986335
            ],
            [
              6.21117,
              42.986242
            ],
            [
              6.21114,
              42.986532
            ],
            [
              6.212175,
              42.986868
            ],
            [
              6.212169,
              42.986461
            ],
            [
              6.212646,
              42.98643
            ],
            [
              6.212918,
              42.987017
            ],
            [
              6.213796,
              42.987251
            ],
            [
              6.213314,
              42.987563
            ],
            [
              6.214092,
              42.987749
            ],
            [
              6.213207,
              42.98789
            ],
            [
              6.213092,
              42.988164
            ],
            [
              6.214015,
              42.988279
            ],
            [
              6.213573,
              42.98887
            ],
            [
              6.214017,
              42.989272
            ],
            [
              6.213762,
              42.989724
            ],
            [
              6.214303,
              42.990062
            ],
            [
              6.21505,
              42.990091
            ],
            [
              6.215542,
              42.991324
            ],
            [
              6.216211,
              42.991267
            ],
            [
              6.216746,
              42.991589
            ],
            [
              6.218397,
              42.990812
            ],
            [
              6.219006,
              42.990262
            ],
            [
              6.220119,
              42.989971
            ],
            [
              6.220874,
              42.990382
            ],
            [
              6.220203,
              42.990897
            ],
            [
              6.220181,
              42.99107
            ],
            [
              6.220695,
              42.991114
            ],
            [
              6.219522,
              42.991892
            ],
            [
              6.219497,
              42.992224
            ],
            [
              6.220872,
              42.991913
            ],
            [
              6.221298,
              42.992034
            ],
            [
              6.221148,
              42.99218
            ],
            [
              6.221392,
              42.992319
            ],
            [
              6.222921,
              42.991672
            ],
            [
              6.223191,
              42.991855
            ],
            [
              6.223231,
              42.992784
            ],
            [
              6.223818,
              42.99266
            ],
            [
              6.223966,
              42.992353
            ],
            [
              6.224618,
              42.992847
            ],
            [
              6.224912,
              42.992738
            ],
            [
              6.225538,
              42.992963
            ],
            [
              6.225955,
              42.992807
            ],
            [
              6.226236,
              42.993006
            ],
            [
              6.226516,
              42.992535
            ],
            [
              6.227037,
              42.992689
            ],
            [
              6.227127,
              42.992539
            ],
            [
              6.227678,
              42.992753
            ],
            [
              6.228094,
              42.993366
            ],
            [
              6.228434,
              42.993182
            ],
            [
              6.229583,
              42.993889
            ],
            [
              6.230355,
              42.99404
            ],
            [
              6.23055,
              42.99363
            ],
            [
              6.230883,
              42.994256
            ],
            [
              6.23077,
              42.995367
            ],
            [
              6.232096,
              42.996599
            ],
            [
              6.23224,
              42.996403
            ],
            [
              6.232642,
              42.996466
            ],
            [
              6.232848,
              42.996172
            ],
            [
              6.233885,
              42.996397
            ],
            [
              6.23447,
              42.995658
            ],
            [
              6.234818,
              42.995824
            ],
            [
              6.234724,
              42.995301
            ],
            [
              6.23494,
              42.995454
            ],
            [
              6.235565,
              42.995316
            ],
            [
              6.235882,
              42.995784
            ],
            [
              6.235671,
              42.996721
            ],
            [
              6.235934,
              42.996514
            ],
            [
              6.236223,
              42.9968
            ],
            [
              6.236239,
              42.996618
            ],
            [
              6.236885,
              42.996799
            ],
            [
              6.236901,
              42.997227
            ],
            [
              6.237363,
              42.997673
            ],
            [
              6.237875,
              42.997659
            ],
            [
              6.238267,
              42.997049
            ],
            [
              6.239229,
              42.997267
            ],
            [
              6.239636,
              42.997673
            ],
            [
              6.239852,
              42.997594
            ],
            [
              6.241547,
              42.998414
            ],
            [
              6.241679,
              42.998278
            ],
            [
              6.242039,
              42.998668
            ],
            [
              6.242186,
              42.998248
            ],
            [
              6.242833,
              42.998618
            ],
            [
              6.243138,
              42.998303
            ],
            [
              6.243686,
              42.998608
            ],
            [
              6.245152,
              42.998407
            ],
            [
              6.244939,
              42.997978
            ],
            [
              6.245312,
              42.998
            ],
            [
              6.245162,
              42.997326
            ],
            [
              6.24574,
              42.996958
            ],
            [
              6.24638,
              42.997871
            ],
            [
              6.246875,
              42.997715
            ],
            [
              6.24769,
              42.998062
            ],
            [
              6.247923,
              42.997949
            ],
            [
              6.248271,
              42.998461
            ],
            [
              6.248568,
              42.998206
            ],
            [
              6.248747,
              42.998602
            ],
            [
              6.249216,
              42.998661
            ],
            [
              6.24916,
              42.99887
            ],
            [
              6.249996,
              42.998963
            ],
            [
              6.250338,
              42.999731
            ],
            [
              6.25086,
              43.000031
            ],
            [
              6.250745,
              43.000371
            ],
            [
              6.250256,
              43.000481
            ],
            [
              6.250315,
              43.001017
            ],
            [
              6.250738,
              43.001165
            ],
            [
              6.250982,
              43.00198
            ],
            [
              6.250415,
              43.001636
            ],
            [
              6.249812,
              43.001648
            ],
            [
              6.249897,
              43.002003
            ],
            [
              6.24959,
              43.00216
            ],
            [
              6.249413,
              43.002747
            ],
            [
              6.249672,
              43.003159
            ],
            [
              6.249218,
              43.003742
            ],
            [
              6.250146,
              43.003951
            ],
            [
              6.25081,
              43.003589
            ],
            [
              6.251408,
              43.003678
            ],
            [
              6.251886,
              43.004106
            ],
            [
              6.252328,
              43.003982
            ],
            [
              6.252481,
              43.004379
            ],
            [
              6.252445,
              43.004634
            ],
            [
              6.25214,
              43.004593
            ],
            [
              6.252131,
              43.00552
            ],
            [
              6.251145,
              43.005695
            ],
            [
              6.251194,
              43.005528
            ],
            [
              6.250899,
              43.00556
            ],
            [
              6.250408,
              43.006197
            ],
            [
              6.249886,
              43.006134
            ],
            [
              6.24974,
              43.006342
            ],
            [
              6.249771,
              43.006559
            ],
            [
              6.250666,
              43.00667
            ],
            [
              6.250732,
              43.006854
            ],
            [
              6.250276,
              43.008291
            ],
            [
              6.249441,
              43.008471
            ],
            [
              6.249034,
              43.008871
            ],
            [
              6.249192,
              43.009182
            ],
            [
              6.248958,
              43.009173
            ],
            [
              6.249408,
              43.010067
            ],
            [
              6.249161,
              43.010852
            ],
            [
              6.249716,
              43.01128
            ],
            [
              6.249728,
              43.011578
            ],
            [
              6.249432,
              43.011669
            ],
            [
              6.249534,
              43.012545
            ],
            [
              6.249181,
              43.012436
            ],
            [
              6.248494,
              43.012775
            ],
            [
              6.249127,
              43.013386
            ],
            [
              6.248429,
              43.013119
            ],
            [
              6.248769,
              43.013455
            ],
            [
              6.248378,
              43.013567
            ],
            [
              6.248923,
              43.014979
            ],
            [
              6.248448,
              43.014493
            ],
            [
              6.248822,
              43.016028
            ],
            [
              6.248466,
              43.015911
            ],
            [
              6.248946,
              43.016732
            ],
            [
              6.248525,
              43.016533
            ],
            [
              6.248627,
              43.016997
            ],
            [
              6.2475,
              43.018727
            ],
            [
              6.246317,
              43.019005
            ],
            [
              6.246201,
              43.019455
            ],
            [
              6.24543,
              43.019312
            ],
            [
              6.245655,
              43.019911
            ],
            [
              6.2453,
              43.01983
            ],
            [
              6.244794,
              43.020204
            ],
            [
              6.244592,
              43.02013
            ],
            [
              6.244609,
              43.020332
            ],
            [
              6.244235,
              43.020222
            ],
            [
              6.243657,
              43.020422
            ],
            [
              6.243549,
              43.020979
            ],
            [
              6.243797,
              43.020832
            ],
            [
              6.243803,
              43.021157
            ],
            [
              6.242922,
              43.021634
            ],
            [
              6.242659,
              43.022362
            ],
            [
              6.242308,
              43.022331
            ],
            [
              6.241892,
              43.022829
            ],
            [
              6.24185,
              43.023028
            ],
            [
              6.242248,
              43.023205
            ],
            [
              6.242213,
              43.024725
            ],
            [
              6.242576,
              43.025331
            ],
            [
              6.242064,
              43.025639
            ],
            [
              6.242772,
              43.026377
            ],
            [
              6.243115,
              43.02643
            ],
            [
              6.243033,
              43.02664
            ],
            [
              6.24249,
              43.026475
            ],
            [
              6.242002,
              43.026807
            ],
            [
              6.24181,
              43.026637
            ],
            [
              6.242037,
              43.026399
            ],
            [
              6.241342,
              43.025449
            ],
            [
              6.240241,
              43.025146
            ],
            [
              6.23977,
              43.025196
            ],
            [
              6.239565,
              43.02546
            ],
            [
              6.23942,
              43.025337
            ],
            [
              6.239564,
              43.024953
            ],
            [
              6.23902,
              43.023972
            ],
            [
              6.239252,
              43.023445
            ],
            [
              6.239141,
              43.022605
            ],
            [
              6.238796,
              43.02231
            ],
            [
              6.238768,
              43.021275
            ],
            [
              6.238359,
              43.020631
            ],
            [
              6.237739,
              43.020325
            ],
            [
              6.237758,
              43.019301
            ],
            [
              6.236527,
              43.018916
            ],
            [
              6.236305,
              43.018647
            ],
            [
              6.23687,
              43.017786
            ],
            [
              6.236607,
              43.017251
            ],
            [
              6.237026,
              43.016058
            ],
            [
              6.236308,
              43.015045
            ],
            [
              6.236446,
              43.014786
            ],
            [
              6.235033,
              43.012896
            ],
            [
              6.232501,
              43.011029
            ],
            [
              6.230302,
              43.010166
            ],
            [
              6.22828,
              43.010012
            ],
            [
              6.227449,
              43.010344
            ],
            [
              6.227555,
              43.011208
            ],
            [
              6.227259,
              43.011526
            ],
            [
              6.225246,
              43.011694
            ],
            [
              6.223622,
              43.010934
            ],
            [
              6.222313,
              43.011781
            ],
            [
              6.222874,
              43.012516
            ],
            [
              6.222528,
              43.01259
            ],
            [
              6.222527,
              43.012929
            ],
            [
              6.220714,
              43.013013
            ],
            [
              6.220647,
              43.012705
            ],
            [
              6.220045,
              43.012568
            ],
            [
              6.219896,
              43.012301
            ],
            [
              6.218651,
              43.012113
            ],
            [
              6.218116,
              43.012385
            ],
            [
              6.218242,
              43.013371
            ],
            [
              6.217959,
              43.013357
            ],
            [
              6.217666,
              43.013712
            ],
            [
              6.217098,
              43.013607
            ],
            [
              6.216676,
              43.013377
            ],
            [
              6.216214,
              43.012324
            ],
            [
              6.216955,
              43.012098
            ],
            [
              6.216509,
              43.011319
            ],
            [
              6.216905,
              43.011353
            ],
            [
              6.216896,
              43.011165
            ],
            [
              6.217626,
              43.010887
            ],
            [
              6.217861,
              43.010455
            ],
            [
              6.217535,
              43.010006
            ],
            [
              6.217822,
              43.009684
            ],
            [
              6.21678,
              43.008124
            ],
            [
              6.216185,
              43.007774
            ],
            [
              6.215555,
              43.006545
            ],
            [
              6.214893,
              43.006232
            ],
            [
              6.215195,
              43.005984
            ],
            [
              6.213432,
              43.003893
            ],
            [
              6.212023,
              43.002968
            ],
            [
              6.210639,
              43.002418
            ],
            [
              6.20744,
              43.001882
            ],
            [
              6.207105,
              43.001965
            ],
            [
              6.206304,
              43.002994
            ],
            [
              6.204986,
              43.002715
            ],
            [
              6.202095,
              43.004009
            ],
            [
              6.2009,
              43.004228
            ],
            [
              6.198683,
              43.004131
            ],
            [
              6.198691,
              43.003919
            ],
            [
              6.200873,
              43.004115
            ],
            [
              6.203468,
              43.003279
            ],
            [
              6.202782,
              43.002272
            ],
            [
              6.201063,
              43.002886
            ],
            [
              6.201294,
              43.00322
            ],
            [
              6.200608,
              43.003493
            ],
            [
              6.200097,
              43.003517
            ],
            [
              6.200538,
              43.003453
            ],
            [
              6.200506,
              43.003278
            ],
            [
              6.199638,
              43.003318
            ],
            [
              6.200498,
              43.003235
            ],
            [
              6.200421,
              43.003001
            ],
            [
              6.202773,
              43.002155
            ],
            [
              6.202622,
              43.001381
            ],
            [
              6.200657,
              43.000553
            ],
            [
              6.1993,
              43.00056
            ],
            [
              6.197383,
              43.001289
            ],
            [
              6.196742,
              43.002188
            ],
            [
              6.196896,
              43.002481
            ],
            [
              6.197634,
              43.002721
            ],
            [
              6.197641,
              43.003029
            ],
            [
              6.197134,
              43.00337
            ],
            [
              6.195928,
              43.003313
            ],
            [
              6.195002,
              43.003984
            ],
            [
              6.194477,
              43.004071
            ],
            [
              6.194176,
              43.003715
            ],
            [
              6.19335,
              43.003916
            ],
            [
              6.193102,
              43.004991
            ],
            [
              6.193845,
              43.005323
            ],
            [
              6.193602,
              43.005918
            ],
            [
              6.192703,
              43.005649
            ],
            [
              6.192605,
              43.005497
            ],
            [
              6.193089,
              43.005207
            ],
            [
              6.192938,
              43.004887
            ],
            [
              6.192087,
              43.004752
            ]
          ]
        ]
      }
    },
    {
      "type": "Feature",
      "properties": {
        "rang": 1,
        "points": 9
      },
      "geometry": {
        "type": "Polygon",
        "coordinates": [
          [
            [
              6.199408,
              42.982099
            ],
            [
              6.199258,
              42.982121
            ],
            [
              6.199186,
              42.982109
            ],
            [
              6.199183,
              42.982079
            ],
            [
              6.199214,
              42.982054
            ],
            [
              6.199308,
              42.982038
            ],
            [
              6.199364,
              42.982018
            ],
            [
              6.199447,
              42.98203
            ],
            [
              6.199453,
              42.982079
            ],
            [
              6.199408,
              42.982099
            ]
          ]
        ]
      }
    }
  ]
}